Asset ID,Parent Name,Parent LEI,Parent Reg Number,Parent Reg Jurisdiction,Subsidiary Name,Subsidiary LEI,Subsidiary Reg Number,Subsidiary Reg Jurisdiction,Subsidiary Industry,Asset Name,Premise Type,Asset Criticality,Address,Country,Country Code,Latitude,Longitude,Probability
1_SIEMENS-ENERGY-AG,Siemens Energy AG,5299005CHJZ14D4FDJ62,HRB 252581,DE,Siemens Energy AG,5299005CHJZ14D4FDJ62,HRB 252581,DE,Utilities,Siemens Technopark Mülheim GmbH & Co. KG,INDUSTRIAL,,"Mellinghofer Str. 55, 45473 Mülheim an der Ruhr, Germany",Germany,,51.4418385,6.8808479,medium
2_SIEMENS-ENERGY-AG,Siemens Energy AG,5299005CHJZ14D4FDJ62,HRB 252581,DE,Siemens Energy AG,5299005CHJZ14D4FDJ62,HRB 252581,DE,Utilities,Siemens Energy Austria,HIGH_ST,,"Siemensstraße 90, 1210 Wien, Austria",Austria,,48.2685132,16.4237471,high
3_SIEMENS-ENERGY-AG,Siemens Energy AG,5299005CHJZ14D4FDJ62,HRB 252581,DE,Siemens Energy AG,5299005CHJZ14D4FDJ62,HRB 252581,DE,Utilities,Siemens Energy AG,HIGH_ST,,"Freilagerstrasse 40, 8047 Zürich, Switzerland",Switzerland,,47.3796272,8.4916257,high
4_SIEMENS-ENERGY-AG,Siemens Energy AG,5299005CHJZ14D4FDJ62,HRB 252581,DE,Siemens Energy AG,5299005CHJZ14D4FDJ62,HRB 252581,DE,Utilities,Siemens Energy,INDUSTRIAL,,"Am Stahl 2, 91301 Forchheim, Germany",Germany,,49.7137555,11.0723667,high
5_SIEMENS-ENERGY-AG,Siemens Energy AG,5299005CHJZ14D4FDJ62,HRB 252581,DE,Siemens Energy AG,5299005CHJZ14D4FDJ62,HRB 252581,DE,Utilities,Siemens Energy Global GmbH & Co. KG,INDUSTRIAL,,"Otto-Hahn-Ring 6/building 29, 81739 München, Germany",Germany,,48.0911286,11.6527081,high
6_SIEMENS-ENERGY-AG,Siemens Energy AG,5299005CHJZ14D4FDJ62,HRB 252581,DE,Siemens Energy AG,5299005CHJZ14D4FDJ62,HRB 252581,DE,Utilities,Siemens Energy,INDUSTRIAL,,"Hegelstraße 20, 73230 Kirchheim unter Teck, Germany",Germany,,48.6508331,9.4291162,high
7_SIEMENS-ENERGY-AG,Siemens Energy AG,5299005CHJZ14D4FDJ62,HRB 252581,DE,Siemens Energy AG,5299005CHJZ14D4FDJ62,HRB 252581,DE,Utilities,Siemens Energy,INDUSTRIAL,,"Sickingenstraße 69, 10553 Berlin, Germany",Germany,,52.5317549,13.3232621,high
8_SIEMENS-ENERGY-AG,Siemens Energy AG,5299005CHJZ14D4FDJ62,HRB 252581,DE,Siemens Energy AG,5299005CHJZ14D4FDJ62,HRB 252581,DE,Utilities,Siemens Energy Global GmbH & Co. KG,INDUSTRIAL,,"Huttenstraße 12, 10553 Berlin, Germany",Germany,,52.5280681,13.3240915,high
9_SIEMENS-ENERGY-AG,Siemens Energy AG,5299005CHJZ14D4FDJ62,HRB 252581,DE,Siemens Energy AG,5299005CHJZ14D4FDJ62,HRB 252581,DE,Utilities,Siemens Energy AG,MULTI_RES,,"Einhornstraße 21, 72138 Kirchentellinsfurt, Germany",Germany,,48.5315681,9.1396056,high
10_SIEMENS-ENERGY-AG,Siemens Energy AG,5299005CHJZ14D4FDJ62,HRB 252581,DE,Siemens Energy AG,5299005CHJZ14D4FDJ62,HRB 252581,DE,Utilities,Siemens Energy Global GmbH & Co. KG,INDUSTRIAL,,"Siemensallee 84, 76187 Karlsruhe, Germany",Germany,,49.0279088,8.3510361,high
11_SIEMENS-ENERGY-AG,Siemens Energy AG,5299005CHJZ14D4FDJ62,HRB 252581,DE,Siemens Energy AG,5299005CHJZ14D4FDJ62,HRB 252581,DE,Utilities,Siemens Energy Inc,INDUSTRIAL,,"1901 N Roselle Rd, Schaumburg, IL 60195, USA",United States,,42.0619262,-88.0783397,high
12_SIEMENS-ENERGY-AG,Siemens Energy AG,5299005CHJZ14D4FDJ62,HRB 252581,DE,Siemens Energy AG,5299005CHJZ14D4FDJ62,HRB 252581,DE,Utilities,Siemens Energy Global GmbH & Co. KG,INDUSTRIAL,,"Wolfgang Reuter Platz 2, 47053 Duisburg, Germany",Germany,,51.4269218,6.749901,high
13_SIEMENS-ENERGY-AG,Siemens Energy AG,5299005CHJZ14D4FDJ62,HRB 252581,DE,Siemens Energy AG,5299005CHJZ14D4FDJ62,HRB 252581,DE,Utilities,Siemens Energy Global GmbH & Co. KG - Nonnendamm,INDUSTRIAL,,"Nonnendamm 43-57, 13627 Berlin, Germany",Germany,,52.5316579,13.2793311,medium
14_SIEMENS-ENERGY-AG,Siemens Energy AG,5299005CHJZ14D4FDJ62,HRB 252581,DE,Siemens Energy AG,5299005CHJZ14D4FDJ62,HRB 252581,DE,Utilities,Siemens Energy Global GmbH & Co. KG,INDUSTRIAL,,"Siemenspromenade 9, 91058 Erlangen, Germany",Germany,,49.5768621,11.0050201,high
15_SIEMENS-ENERGY-AG,Siemens Energy AG,5299005CHJZ14D4FDJ62,HRB 252581,DE,Siemens Energy AG,5299005CHJZ14D4FDJ62,HRB 252581,DE,Utilities,Siemens Energy Global GmbH & Co. KG,INDUSTRIAL,,"Rheinstraße 100, 45478 Mülheim an der Ruhr, Germany",Germany,,51.4380206,6.8487204,high
16_SIEMENS-ENERGY-AG,Siemens Energy AG,5299005CHJZ14D4FDJ62,HRB 252581,DE,Siemens Energy AG,5299005CHJZ14D4FDJ62,HRB 252581,DE,Utilities,Siemens Energy Global GmbH & Co. KG,INDUSTRIAL,,"Werner-von-Siemens-Straße 1, 99086 Erfurt, Germany",Germany,,51.0073531,11.0276381,high
17_SIEMENS-ENERGY-AG,Siemens Energy AG,5299005CHJZ14D4FDJ62,HRB 252581,DE,Siemens Energy AG,5299005CHJZ14D4FDJ62,HRB 252581,DE,Utilities,Siemens Energy Global GmbH & Co. KG,HIGH_ST,,"Hahnstraße 43e, 60528 Frankfurt am Main, Germany",Germany,,50.0814121,8.6361022,high
18_SIEMENS-ENERGY-AG,Siemens Energy AG,5299005CHJZ14D4FDJ62,HRB 252581,DE,Siemens Energy AG,5299005CHJZ14D4FDJ62,HRB 252581,DE,Utilities,Siemens Energy,INDUSTRIAL,,"Frankenstraße 70-80, 90461 Nürnberg, Germany",Germany,,49.4300639,11.0717279,high
19_SIEMENS-ENERGY-AG,Siemens Energy AG,5299005CHJZ14D4FDJ62,HRB 252581,DE,Siemens Energy AG,5299005CHJZ14D4FDJ62,HRB 252581,DE,Utilities,Siemens Energy Global GmbH & Co. KG,HIGH_ST,,"Overbeckstraße 44, 01139 Dresden, Germany",Germany,,51.0749416,13.6894697,high
20_SIEMENS-ENERGY-AG,Siemens Energy AG,5299005CHJZ14D4FDJ62,HRB 252581,DE,Siemens Energy AG,5299005CHJZ14D4FDJ62,HRB 252581,DE,Utilities,Siemens Energy Sp. z o.o,HIGH_ST,,"Wólcza_ska 143, 90-525 _ód_, Poland",Poland,,51.7575425,19.4542314,high
21_SIEMENS-ENERGY-AG,Siemens Energy AG,5299005CHJZ14D4FDJ62,HRB 252581,DE,Siemens Energy AG,5299005CHJZ14D4FDJ62,HRB 252581,DE,Utilities,Siemens Sp. z o.o.,HEALTHCARE,,"Wólcza_ska 195, 90-531 _ód_, Poland",Poland,,51.7515372,19.4554995,high
22_SIEMENS-ENERGY-AG,Siemens Energy AG,5299005CHJZ14D4FDJ62,HRB 252581,DE,Siemens Energy AG,5299005CHJZ14D4FDJ62,HRB 252581,DE,Utilities,Siemens Energy Schaltwerk Hochspannung & TECC - Technical Education & Competency Center (Switchgear Factory),INDUSTRIAL,,"Paulsternstraße 26, 13629 Berlin, Germany",Germany,,52.5415015,13.2481148,medium
23_SIEMENS-ENERGY-AG,Siemens Energy AG,5299005CHJZ14D4FDJ62,HRB 252581,DE,Siemens Energy AG,5299005CHJZ14D4FDJ62,HRB 252581,DE,Utilities,SIEMENS ENERGY AUSTRIA GmbH Baulager,INDUSTRIAL,,"Lobgrundstraße, 1220 Wien, Austria",Austria,,48.1753181,16.507534,medium
24_SIEMENS-ENERGY-AG,Siemens Energy AG,5299005CHJZ14D4FDJ62,HRB 252581,DE,Siemens Energy AG,5299005CHJZ14D4FDJ62,HRB 252581,DE,Utilities,Siemens Energy Global GmbH & Co. KG,INDUSTRIAL,,"Lutherstraße 51, 02826 Görlitz, Germany",Germany,,51.1467461,14.9708557,high
25_SIEMENS-ENERGY-AG,Siemens Energy AG,5299005CHJZ14D4FDJ62,HRB 252581,DE,Siemens Energy AG,5299005CHJZ14D4FDJ62,HRB 252581,DE,Utilities,Siemens Energy Sp. z o.o.,SINGLE_RES,,"Armii Krajowej 13/307, 59-900 Zgorzelec, Poland",Poland,,51.1500495,15.0111569,high
26_SIEMENS-ENERGY-AG,Siemens Energy AG,5299005CHJZ14D4FDJ62,HRB 252581,DE,Siemens Energy AG,5299005CHJZ14D4FDJ62,HRB 252581,DE,Utilities,"Siemens Energy, s.r.o.",OFFICE,,"Siemensova 4, 155 00 Praha 13, Czechia",Czechia,,50.0473086,14.3061504,high
27_SIEMENS-ENERGY-AG,Siemens Energy AG,5299005CHJZ14D4FDJ62,HRB 252581,DE,Siemens Energy AG,5299005CHJZ14D4FDJ62,HRB 252581,DE,Utilities,Siemens Energy Industrial Turbomachinery Ltd.,INDUSTRIAL,,"Teal Park Rd, North Hykeham, Lincoln LN6 3AD, UK",United Kingdom,,53.1964187,-0.6147615,medium
28_SIEMENS-ENERGY-AG,Siemens Energy AG,5299005CHJZ14D4FDJ62,HRB 252581,DE,Siemens Energy AG,5299005CHJZ14D4FDJ62,HRB 252581,DE,Utilities,Siemens Energy B.V.,INDUSTRIAL,,"Stadhouderslaan 900, 2382 BL Zoeterwoude, Netherlands",Netherlands,,52.141017,4.512013,high
29_SIEMENS-ENERGY-AG,Siemens Energy AG,5299005CHJZ14D4FDJ62,HRB 252581,DE,Siemens Energy AG,5299005CHJZ14D4FDJ62,HRB 252581,DE,Utilities,Siemens Energy B.V. (Hoogspanning),INDUSTRIAL,,"Siliciumweg 99, 3812 SW Amersfoort, Netherlands",Netherlands,,52.1640033,5.3486921,high
30_SIEMENS-ENERGY-AG,Siemens Energy AG,5299005CHJZ14D4FDJ62,HRB 252581,DE,Siemens Energy AG,5299005CHJZ14D4FDJ62,HRB 252581,DE,Utilities,Siemens Energy Head Office,OFFICE,,X563+26W - Dubai - United Arab Emirates,United Arab Emirates,,24.9601242,55.1530745,high
31_SIEMENS-ENERGY-AG,Siemens Energy AG,5299005CHJZ14D4FDJ62,HRB 252581,DE,Siemens Energy AG,5299005CHJZ14D4FDJ62,HRB 252581,DE,Utilities,Siemens Energy Global GmbH & Co. KG Mannheim,OFFICE,,"Glücksteinallee 25, 68163 Mannheim, Germany",Germany,,49.4764399,8.47128,high
32_SIEMENS-ENERGY-AG,Siemens Energy AG,5299005CHJZ14D4FDJ62,HRB 252581,DE,Siemens Energy AG,5299005CHJZ14D4FDJ62,HRB 252581,DE,Utilities,Siemens Energy Global GmbH & Co. KG,INDUSTRIAL,,"Philipsbornstraße 2, 30165 Hannover, Germany",Germany,,52.3879587,9.7333639,high
33_SIEMENS-ENERGY-AG,Siemens Energy AG,5299005CHJZ14D4FDJ62,HRB 252581,DE,Siemens Energy AG,5299005CHJZ14D4FDJ62,HRB 252581,DE,Utilities,Siemens Energy,OFFICE,,"Str. Sergent Nu_u Ion 44, Bucure_ti 061344, Romania",Romania,,44.4270177,26.061744,high
34_SIEMENS-ENERGY-AG,Siemens Energy AG,5299005CHJZ14D4FDJ62,HRB 252581,DE,Siemens Energy AG,5299005CHJZ14D4FDJ62,HRB 252581,DE,Utilities,Siemens S.R.L.- Sucursala CF,HIGH_ST,,"Bd. Preciziei, 24, Bucuresti-Sector 6, Bucuresti, 062204, Bucure_ti, Romania",Romania,,44.4315,26,medium
35_SIEMENS-ENERGY-AG,Siemens Energy AG,5299005CHJZ14D4FDJ62,HRB 252581,DE,Siemens Energy AG,5299005CHJZ14D4FDJ62,HRB 252581,DE,Utilities,Siemens Energy Blades & Vanes Tampa,OFFICE,,"13111 Bay Industrial Dr Suite 100, Gibsonton, FL 33534, USA",United States,,27.7957727,-82.3834198,medium
36_SIEMENS-ENERGY-AG,Siemens Energy AG,5299005CHJZ14D4FDJ62,HRB 252581,DE,Siemens Energy AG,5299005CHJZ14D4FDJ62,HRB 252581,DE,Utilities,Siemens AG Röhrenwerk Berlin,INDUSTRIAL,,"Rohrdamm 88, 13629 Berlin, Germany",Germany,,52.5351526,13.2644097,medium
37_SIEMENS-ENERGY-AG,Siemens Energy AG,5299005CHJZ14D4FDJ62,HRB 252581,DE,Siemens Energy AG,5299005CHJZ14D4FDJ62,HRB 252581,DE,Utilities,Siemens Energy S.A.,INDUSTRIAL,,"Ronda de Europa, 5, 28760 Tres Cantos, Madrid, Spain",Spain,,40.5979246,-3.7175093,high
38_SIEMENS-ENERGY-AG,Siemens Energy AG,5299005CHJZ14D4FDJ62,HRB 252581,DE,Siemens Energy AG,5299005CHJZ14D4FDJ62,HRB 252581,DE,Utilities,Siemens Energy,INDUSTRIAL,,"Burj alshayaa, Al Kuwayt, Kuwait",Kuwait,,29.3624325,47.9809166,high
39_SIEMENS-ENERGY-AG,Siemens Energy AG,5299005CHJZ14D4FDJ62,HRB 252581,DE,Siemens Energy AG,5299005CHJZ14D4FDJ62,HRB 252581,DE,Utilities,Siemens Energy,INDUSTRIAL,,"Ausschläger Elbdeich 2, 20539 Hamburg, Germany",Germany,,53.5318221,10.0408471,high
40_SIEMENS-ENERGY-AG,Siemens Energy AG,5299005CHJZ14D4FDJ62,HRB 252581,DE,Siemens Energy AG,5299005CHJZ14D4FDJ62,HRB 252581,DE,Utilities,Siemens Energy,INDUSTRIAL,,"Zinkhüttenstraße 45, 45473 Mülheim an der Ruhr, Germany",Germany,,51.4379122,6.8789363,high
41_SIEMENS-ENERGY-AG,Siemens Energy AG,5299005CHJZ14D4FDJ62,HRB 252581,DE,Siemens Energy AG,5299005CHJZ14D4FDJ62,HRB 252581,DE,Utilities,Siemens Energy AS,HIGH_ST,,"Kanalveien 7, 5068 Bergen, Norway",Norway,,60.3695487,5.341742,high
42_SIEMENS-ENERGY-AG,Siemens Energy AG,5299005CHJZ14D4FDJ62,HRB 252581,DE,Siemens Energy AG,5299005CHJZ14D4FDJ62,HRB 252581,DE,Utilities,Siemens Energy S de RL de CV,INDUSTRIAL,,"Avenida Ejército Nacional 843-B , Acceso por Corporativo Antara II, Blvd. Miguel de Cervantes Saavedra, Granada, Miguel Hidalgo, 11520 Ciudad de México, CDMX, Mexico",Mexico,,19.4395915,-99.2019065,high
43_SIEMENS-ENERGY-AG,Siemens Energy AG,5299005CHJZ14D4FDJ62,HRB 252581,DE,Siemens Energy AG,5299005CHJZ14D4FDJ62,HRB 252581,DE,Utilities,Siemens-energy EAD Centro de Ensamble,INDUSTRIAL,,"Av. Las Misiones 1, no name, 76246 Parque Industrial Tecnológico Innovación, Qro., Mexico",Mexico,,20.5576877,-100.2705723,medium
44_SIEMENS-ENERGY-AG,Siemens Energy AG,5299005CHJZ14D4FDJ62,HRB 252581,DE,Siemens Energy AG,5299005CHJZ14D4FDJ62,HRB 252581,DE,Utilities,"Siemens Energy Fábrica de Interruptores de Potencia para Alta Tensión El Marqués, Querétaro, México",INDUSTRIAL,,"Parque Industrial El Marques Lotes 1 al 4, Manzana 10, 76246 Parque Industrial El Marqués, Qro., Mexico",Mexico,,20.5579704,-100.2641437,medium
45_SIEMENS-ENERGY-AG,Siemens Energy AG,5299005CHJZ14D4FDJ62,HRB 252581,DE,Siemens Energy AG,5299005CHJZ14D4FDJ62,HRB 252581,DE,Utilities,Siemens Energy,INDUSTRIAL,,"Europark II, 76246 Parque Industrial Tecnológico Innovación, Qro., Mexico",Mexico,,20.5574713,-100.2680289,high
46_SIEMENS-ENERGY-AG,Siemens Energy AG,5299005CHJZ14D4FDJ62,HRB 252581,DE,Siemens Energy AG,5299005CHJZ14D4FDJ62,HRB 252581,DE,Utilities,Siemens,INDUSTRIAL,,"C. 1 de Junio 248, Veintiuno de Enero, 67164 Guadalupe, N.L., Mexico",Mexico,,25.6899056,-100.2141223,high
47_SIEMENS-ENERGY-AG,Siemens Energy AG,5299005CHJZ14D4FDJ62,HRB 252581,DE,Siemens Energy AG,5299005CHJZ14D4FDJ62,HRB 252581,DE,Utilities,Siemens,INDUSTRIAL,,"Cda. Ernesto Pugibet, Colonia Centro, Centro, Cuauhtémoc, 06070 Ciudad de México, CDMX, Mexico",Mexico,,19.4305726,-99.1456325,high
48_SIEMENS-ENERGY-AG,Siemens Energy AG,5299005CHJZ14D4FDJ62,HRB 252581,DE,Siemens Energy AG,5299005CHJZ14D4FDJ62,HRB 252581,DE,Utilities,Siemens Energy d.o.o.,INDUSTRIAL,,"Slavonska Avenija 1a, 10000, Zagreb, Croatia",Croatia,,45.7971375,16.0106631,high
49_SIEMENS-ENERGY-AG,Siemens Energy AG,5299005CHJZ14D4FDJ62,HRB 252581,DE,Siemens Energy AG,5299005CHJZ14D4FDJ62,HRB 252581,DE,Utilities,SIEMENS ENERGY d.o.o. Beograd,HIGH_ST,,"Tadije Sondermajera 11, Beograd, Serbia",Serbia,,44.8138771,20.3958073,high
50_SIEMENS-ENERGY-AG,Siemens Energy AG,5299005CHJZ14D4FDJ62,HRB 252581,DE,Siemens Energy AG,5299005CHJZ14D4FDJ62,HRB 252581,DE,Utilities,Siemens Energy,INDUSTRIAL,,"DCU Alpha, Innovation House, Old Finglas Rd, Glasnevin, Dublin 11, D11 KXN4, Ireland",Ireland,,53.376486,-6.270562,high
51_SIEMENS-ENERGY-AG,Siemens Energy AG,5299005CHJZ14D4FDJ62,HRB 252581,DE,Siemens Energy AG,5299005CHJZ14D4FDJ62,HRB 252581,DE,Utilities,Siemens Energy Global GmbH & Co.KG,INDUSTRIAL,,"Katzwanger Str. 150, 90461 Nürnberg, Germany",Germany,,49.4233396,11.0849063,high
52_SIEMENS-ENERGY-AG,Siemens Energy AG,5299005CHJZ14D4FDJ62,HRB 252581,DE,Siemens Energy AG,5299005CHJZ14D4FDJ62,HRB 252581,DE,Utilities,Siemens Mobility - Soonvijai office,OFFICE,,"8/3 ___ ________ 47 ___ 4, 1 _. ________ 47 ___________ ___________ _____________ 10310, Thailand",Thailand,,13.7482393,100.5861147,medium
53_SIEMENS-ENERGY-AG,Siemens Energy AG,5299005CHJZ14D4FDJ62,HRB 252581,DE,Siemens Energy AG,5299005CHJZ14D4FDJ62,HRB 252581,DE,Utilities,SIEMENS Energy Rayong,INDUSTRIAL,,"___________ Tambon Huai Pong, Amphoe Mueang Rayong, Chang Wat Rayong 21150, Thailand",Thailand,,12.7595088,101.1124406,high
54_SIEMENS-ENERGY-AG,Siemens Energy AG,5299005CHJZ14D4FDJ62,HRB 252581,DE,Siemens Energy AG,5299005CHJZ14D4FDJ62,HRB 252581,DE,Utilities,"Siemens Co.,Ltd. Blue Line Extension Project Office",OFFICE,,"181 Rama IX Rd, Khwaeng Huai Khwang, Khet Huai Khwang, Krung Thep Maha Nakhon 10310, Thailand",Thailand,,13.7606265,100.5813217,medium
55_SIEMENS-ENERGY-AG,Siemens Energy AG,5299005CHJZ14D4FDJ62,HRB 252581,DE,Siemens Energy AG,5299005CHJZ14D4FDJ62,HRB 252581,DE,Utilities,Siemens Energy Sdn Bhd,OFFICE,,"Level 1, Reception, Cp Tower, Pusat Perdagangan, 11, Jalan 16/11, Seksyen 16, 46350 Petaling Jaya, Selangor, Malaysia",Malaysia,,3.1269842,101.6443213,high
56_SIEMENS-ENERGY-AG,Siemens Energy AG,5299005CHJZ14D4FDJ62,HRB 252581,DE,Siemens Energy AG,5299005CHJZ14D4FDJ62,HRB 252581,DE,Utilities,Siemens Energy Unlimited.,INDUSTRIAL,,"Amazon Drive, Point Lisas, Industrial Estate, 9GXF+9G3, Couva, Trinidad and Tobago",Trinidad and Tobago,,10.3983776,-61.4761998,high
57_SIEMENS-ENERGY-AG,Siemens Energy AG,5299005CHJZ14D4FDJ62,HRB 252581,DE,Siemens Energy AG,5299005CHJZ14D4FDJ62,HRB 252581,DE,Utilities,Siemens Energy Austria GmbH,INDUSTRIAL,,"Werner v. Siemens Platz 1, 5020 Salzburg, Austria",Austria,,47.8375888,13.061903,high
58_SIEMENS-ENERGY-AG,Siemens Energy AG,5299005CHJZ14D4FDJ62,HRB 252581,DE,Siemens Energy AG,5299005CHJZ14D4FDJ62,HRB 252581,DE,Utilities,Siemens Energy Inc,INDUSTRIAL,,"1335 Ridgeland Pkwy #300, Alpharetta, GA 30004, USA",United States,,34.1184089,-84.226994,high
59_SIEMENS-ENERGY-AG,Siemens Energy AG,5299005CHJZ14D4FDJ62,HRB 252581,DE,Siemens Energy AG,5299005CHJZ14D4FDJ62,HRB 252581,DE,Utilities,"Siemens Energy, Inc.",INDUSTRIAL,,"100 W Chemung St, Painted Post, NY 14870, USA",United States,,42.1565155,-77.0912882,high
60_SIEMENS-ENERGY-AG,Siemens Energy AG,5299005CHJZ14D4FDJ62,HRB 252581,DE,Siemens Energy AG,5299005CHJZ14D4FDJ62,HRB 252581,DE,Utilities,Siemens EPC Company,OFFICE,,"Alset Power Company Inc, 245 E 93rd St 9th Floor, New York, NY 10128, USA",United States,,40.7828013,-73.9491505,high
61_SIEMENS-ENERGY-AG,Siemens Energy AG,5299005CHJZ14D4FDJ62,HRB 252581,DE,Siemens Energy AG,5299005CHJZ14D4FDJ62,HRB 252581,DE,Utilities,Siemens Energy Venezuela,INDUSTRIAL,,"F5M9+QRW Calle Don, Av. Principal de Los Ruices, Caracas 1071, Distrito Capital, Venezuela","Venezuela, Bolivarian Republic of",,10.4844919,-66.8304357,high
62_SIEMENS-ENERGY-AG,Siemens Energy AG,5299005CHJZ14D4FDJ62,HRB 252581,DE,Siemens Energy AG,5299005CHJZ14D4FDJ62,HRB 252581,DE,Utilities,Siemens Energy Dammam Hub,INDUSTRIAL,,"Street # 152 Building 6685, _______ ________ _______ ________ ______ 34331, Saudi Arabia",Saudi Arabia,,26.2635209,49.9463515,high
63_SIEMENS-ENERGY-AG,Siemens Energy AG,5299005CHJZ14D4FDJ62,HRB 252581,DE,Siemens Energy AG,5299005CHJZ14D4FDJ62,HRB 252581,DE,Utilities,Siemens Energy - Innovation Center Abu Dhabi,INDUSTRIAL,,Abu Dhabi - Sas Al Nakhl - Abu Dhabi - United Arab Emirates,United Arab Emirates,,24.4212258,54.4974331,medium
64_SIEMENS-ENERGY-AG,Siemens Energy AG,5299005CHJZ14D4FDJ62,HRB 252581,DE,Siemens Energy AG,5299005CHJZ14D4FDJ62,HRB 252581,DE,Utilities,Siemens Energy,MIXED_USE,,"160 Barlow Moor Rd, Manchester M20 2AF, UK",United Kingdom,,53.4246724,-2.2516897,high
65_SIEMENS-ENERGY-AG,Siemens Energy AG,5299005CHJZ14D4FDJ62,HRB 252581,DE,Siemens Energy AG,5299005CHJZ14D4FDJ62,HRB 252581,DE,Utilities,Siemens,SINGLE_RES,,"1081 Koekelberg, Belgium",Belgium,,50.8628491,4.3215322,high
66_SIEMENS-ENERGY-AG,Siemens Energy AG,5299005CHJZ14D4FDJ62,HRB 252581,DE,Siemens Energy AG,5299005CHJZ14D4FDJ62,HRB 252581,DE,Utilities,Siemens Dematic Middle East LLC,SINGLE_RES,,Umm Hurair Rd - Oud Metha - Dubai - United Arab Emirates,United Arab Emirates,,25.243607,55.3114421,medium
67_SIEMENS-ENERGY-AG,Siemens Energy AG,5299005CHJZ14D4FDJ62,HRB 252581,DE,Siemens Energy AG,5299005CHJZ14D4FDJ62,HRB 252581,DE,Utilities,Siemens Gamesa Renewable Energy Austria GmbH,SINGLE_RES,,"Weilandgasse 2, 2115 Ernstbrunn, Austria",Austria,,48.5267278,16.3679096,medium
68_SIEMENS-ENERGY-AG,Siemens Energy AG,5299005CHJZ14D4FDJ62,HRB 252581,DE,Siemens Energy AG,5299005CHJZ14D4FDJ62,HRB 252581,DE,Utilities,GNA I power station 1,OIL_GAS_POWER_PLANT,,"São João da Barra, Rio de Janeiro",Brazil,,-21.83721694,-41.04198255,high
69_SIEMENS-ENERGY-AG,Siemens Energy AG,5299005CHJZ14D4FDJ62,HRB 252581,DE,Siemens Energy Services S.R.L.,5299006KP6CXG2O2XV80,J40/14692/2020,RO,Equity Real Estate Investment Trusts (REITs),Siemens Gamesa Renewable Energy Wind S.r.l. (xSenvion),INDUSTRIAL,,"Contrada Tranzano, 83031 Ariano Irpino AV, Italy",Italy,,41.1661905,15.1063048,medium
70_SIEMENS-ENERGY-AG,Siemens Energy AG,5299005CHJZ14D4FDJ62,HRB 252581,DE,Siemens Energy Services S.R.L.,5299006KP6CXG2O2XV80,J40/14692/2020,RO,Equity Real Estate Investment Trusts (REITs),Siemens Gamesa Renewable Energy Service S.R.L.,INDUSTRIAL,,"Agg.to Ind.le ASI III fase, Contrada Molara, snc, 90018 Termini Imerese PA, Italy",Italy,,37.9677985,13.7958626,high
71_SIEMENS-ENERGY-AG,Siemens Energy AG,5299005CHJZ14D4FDJ62,HRB 252581,DE,Siemens Energy Services S.R.L.,5299006KP6CXG2O2XV80,J40/14692/2020,RO,Equity Real Estate Investment Trusts (REITs),Siemens Energy,INDUSTRIAL,,"16030 Tribogna, Metropolitan City of Genoa, Italy",Italy,,44.4163539,9.2085017,high
72_SIEMENS-ENERGY-AG,Siemens Energy AG,5299005CHJZ14D4FDJ62,HRB 252581,DE,Siemens Energy Services S.R.L.,5299006KP6CXG2O2XV80,J40/14692/2020,RO,Equity Real Estate Investment Trusts (REITs),Siemens Gamesa Renewable Energy Wind Srl,INDUSTRIAL,,"Via Manfredonia, km 2,2, 71121 Foggia FG, Italy",Italy,,41.4800802,15.559547,medium
73_SIEMENS-ENERGY-AG,Siemens Energy AG,5299005CHJZ14D4FDJ62,HRB 252581,DE,Siemens Energy Services S.R.L.,5299006KP6CXG2O2XV80,J40/14692/2020,RO,Equity Real Estate Investment Trusts (REITs),Siemens Energy Centro de Servicio y Entrenamiento,INDUSTRIAL,,"Warnes, Bolivia","Bolivia, Plurinational State of",,-17.517395,-63.1146278,medium
74_SIEMENS-ENERGY-AG,Siemens Energy AG,5299005CHJZ14D4FDJ62,HRB 252581,DE,Siemens Energy Services S.R.L.,5299006KP6CXG2O2XV80,J40/14692/2020,RO,Equity Real Estate Investment Trusts (REITs),Siemens S.A.,INDUSTRIAL,,"edificio Siemens, Blvd. Pte. Arturo Umberto Illia 356 piso 1, X5000 Córdoba, Argentina",Argentina,,-31.422281,-64.181502,medium
75_SIEMENS-ENERGY-AG,Siemens Energy AG,5299005CHJZ14D4FDJ62,HRB 252581,DE,Siemens Energy Services S.R.L.,5299006KP6CXG2O2XV80,J40/14692/2020,RO,Equity Real Estate Investment Trusts (REITs),Siemens Energy Global GmbH & Co. KG,INDUSTRIAL,,"Zum Röthepfuhl 1a, 14974 Ludwigsfelde, Germany",Germany,,52.2994649,13.2798714,high
76_SIEMENS-ENERGY-AG,Siemens Energy AG,5299005CHJZ14D4FDJ62,HRB 252581,DE,Siemens Energy Services S.R.L.,5299006KP6CXG2O2XV80,J40/14692/2020,RO,Equity Real Estate Investment Trusts (REITs),Siemens Energy Inc,INDUSTRIAL,,"4624 Forest Ave, Cincinnati, OH 45212, USA",United States,,39.1604033,-84.4449454,high
77_SIEMENS-ENERGY-AG,Siemens Energy AG,5299005CHJZ14D4FDJ62,HRB 252581,DE,Siemens Energy Services S.R.L.,5299006KP6CXG2O2XV80,J40/14692/2020,RO,Equity Real Estate Investment Trusts (REITs),Siemens Holding,INDUSTRIAL,,"Av de la Hispanidad, 28, Barajas, 28042 Madrid, Spain",Spain,,40.4607649,-3.578082,medium
78_SIEMENS-ENERGY-AG,Siemens Energy AG,5299005CHJZ14D4FDJ62,HRB 252581,DE,Siemens Energy Services S.R.L.,5299006KP6CXG2O2XV80,J40/14692/2020,RO,Equity Real Estate Investment Trusts (REITs),Siemens Holding,INDUSTRIAL,,"C. del Fuego, 51, 28100 Alcobendas, Madrid, Spain",Spain,,40.544937,-3.6354646,medium
79_SIEMENS-ENERGY-AG,Siemens Energy AG,5299005CHJZ14D4FDJ62,HRB 252581,DE,Siemens Energy Services S.R.L.,5299006KP6CXG2O2XV80,J40/14692/2020,RO,Equity Real Estate Investment Trusts (REITs),Siemens Holding,HIGH_ST,,"Av. Leonardo Da Vinci, 15, 28906 Getafe, Madrid, Spain",Spain,,40.2915747,-3.6960797,medium
80_SIEMENS-ENERGY-AG,Siemens Energy AG,5299005CHJZ14D4FDJ62,HRB 252581,DE,Siemens Energy Services S.R.L.,5299006KP6CXG2O2XV80,J40/14692/2020,RO,Equity Real Estate Investment Trusts (REITs),Siemens Networks Sl,INDUSTRIAL,,"Av. de Fuentemar, 41, 28823 Coslada, Madrid, Spain",Spain,,40.4348001,-3.5439773,medium
81_SIEMENS-ENERGY-AG,Siemens Energy AG,5299005CHJZ14D4FDJ62,HRB 252581,DE,Siemens Energy Services S.R.L.,5299006KP6CXG2O2XV80,J40/14692/2020,RO,Equity Real Estate Investment Trusts (REITs),Siemens Holding,SINGLE_RES,,"C. del Teniente Cnel. Noreña, 47, Arganzuela, 28045 Madrid, Spain",Spain,,40.3863094,-3.692249,medium
82_SIEMENS-ENERGY-AG,Siemens Energy AG,5299005CHJZ14D4FDJ62,HRB 252581,DE,Siemens Energy Services S.R.L.,5299006KP6CXG2O2XV80,J40/14692/2020,RO,Equity Real Estate Investment Trusts (REITs),Siemens Limited,OFFICE,,"Central Plaza, Harbour Rd, Wan Chai, Hong Kong",Hong Kong,,22.280182,114.173618,medium
83_SIEMENS-ENERGY-AG,Siemens Energy AG,5299005CHJZ14D4FDJ62,HRB 252581,DE,Siemens Energy Services S.R.L.,5299006KP6CXG2O2XV80,J40/14692/2020,RO,Equity Real Estate Investment Trusts (REITs),Siemens Energy,INDUSTRIAL,,"Cl. 15, Facatativá, Cundinamarca, Colombia",Colombia,,4.8197034,-74.3600094,high
84_SIEMENS-ENERGY-AG,Siemens Energy AG,5299005CHJZ14D4FDJ62,HRB 252581,DE,Siemens Energy Services S.R.L.,5299006KP6CXG2O2XV80,J40/14692/2020,RO,Equity Real Estate Investment Trusts (REITs),Siemens Energy S.R.L,INDUSTRIAL,,"Torre Citibank, Av. Winston Churchill, Santo Domingo, Dominican Republic",Dominican Republic,,18.4697095,-69.9391633,high
85_SIEMENS-ENERGY-AG,Siemens Energy AG,5299005CHJZ14D4FDJ62,HRB 252581,DE,Siemens Energy Services S.R.L.,5299006KP6CXG2O2XV80,J40/14692/2020,RO,Equity Real Estate Investment Trusts (REITs),Siemens Energy Competence Hub Americas,INDUSTRIAL,,"Av. 5 de Febrero 1351, Carrillo, 76120 Santiago de Querétaro, Qro., Mexico",Mexico,,20.6157432,-100.4234471,medium
86_SIEMENS-ENERGY-AG,Siemens Energy AG,5299005CHJZ14D4FDJ62,HRB 252581,DE,Siemens Energy Services S.R.L.,5299006KP6CXG2O2XV80,J40/14692/2020,RO,Equity Real Estate Investment Trusts (REITs),Siemens Energy S.A.,INDUSTRIAL,,"C. 122 4627, B1653 Villa Ballester, Provincia de Buenos Aires, Argentina",Argentina,,-34.5597551,-58.5738734,high
87_SIEMENS-ENERGY-AG,Siemens Energy AG,5299005CHJZ14D4FDJ62,HRB 252581,DE,Siemens Energy Services S.R.L.,5299006KP6CXG2O2XV80,J40/14692/2020,RO,Equity Real Estate Investment Trusts (REITs),"Siemens Pakistan Engineering Company Limited, Karachi",INDUSTRIAL,,"B-72 Estate Ave, Metroville Sindh Industrial Trading Estate, Karachi, Pakistan",Pakistan,,24.9023371,66.9999815,medium
88_SIEMENS-ENERGY-AG,Siemens Energy AG,5299005CHJZ14D4FDJ62,HRB 252581,DE,Siemens Energy Services S.R.L.,5299006KP6CXG2O2XV80,J40/14692/2020,RO,Equity Real Estate Investment Trusts (REITs),siemes engineering,SINGLE_RES,,"Sunset Lane 2, D.H.A Phase II Extension Phase 2 Commercial Area Defence Housing Authority, Karachi, 75500, Pakistan",Pakistan,,24.8325107,67.0664025,medium
89_SIEMENS-ENERGY-AG,Siemens Energy AG,5299005CHJZ14D4FDJ62,HRB 252581,DE,Siemens Energy Services S.R.L.,5299006KP6CXG2O2XV80,J40/14692/2020,RO,Equity Real Estate Investment Trusts (REITs),Siemens,INDUSTRIAL,,"Via Alessandro Volta, 34, 31030 Salzano TV, Italy",Italy,,45.7031252,12.3620438,medium
90_SIEMENS-ENERGY-AG,Siemens Energy AG,5299005CHJZ14D4FDJ62,HRB 252581,DE,Siemens Energy Services S.R.L.,5299006KP6CXG2O2XV80,J40/14692/2020,RO,Equity Real Estate Investment Trusts (REITs),Siemens,INDUSTRIAL,,"PCHF+WMP District 7, Tehran, Tehran Province, Iran","Iran, Islamic Republic of",,35.7298311,51.4242047,medium
91_SIEMENS-ENERGY-AG,Siemens Energy AG,5299005CHJZ14D4FDJ62,HRB 252581,DE,Siemens Energy Services S.R.L.,5299006KP6CXG2O2XV80,J40/14692/2020,RO,Equity Real Estate Investment Trusts (REITs),Siemens Energy Építkezés,INDUSTRIAL,,"Budapest, Er_kar utca, 1157 Hungary",Hungary,,47.531784,19.1514605,high
92_SIEMENS-ENERGY-AG,Siemens Energy AG,5299005CHJZ14D4FDJ62,HRB 252581,DE,Siemens Energy Services S.R.L.,5299006KP6CXG2O2XV80,J40/14692/2020,RO,Equity Real Estate Investment Trusts (REITs),Siemens Sa,INDUSTRIAL,,"Av. San Martín 300, S2200 Timbúes, Santa Fe, Argentina",Argentina,,-32.7586784,-60.7336736,medium
93_SIEMENS-ENERGY-AG,Siemens Energy AG,5299005CHJZ14D4FDJ62,HRB 252581,DE,Siemens Energy Services S.R.L.,5299006KP6CXG2O2XV80,J40/14692/2020,RO,Equity Real Estate Investment Trusts (REITs),Siemens Gamesa Renewable Energy Service S.R.L,INDUSTRIAL,,"SP49, 138, 88050 Caraffa di Catanzaro CZ, Italy",Italy,,38.8776537,16.4832835,high
94_SIEMENS-ENERGY-AG,Siemens Energy AG,5299005CHJZ14D4FDJ62,HRB 252581,DE,Siemens Energy Services S.R.L.,5299006KP6CXG2O2XV80,J40/14692/2020,RO,Equity Real Estate Investment Trusts (REITs),Siemens Subsea Ltd,MIXED_USE,,"Abbotswell Rd, Torry, Aberdeen AB12 3AD, UK",United Kingdom,,57.1269846,-2.0948014,medium
95_SIEMENS-ENERGY-AG,Siemens Energy AG,5299005CHJZ14D4FDJ62,HRB 252581,DE,Siemens Energy Services S.R.L.,5299006KP6CXG2O2XV80,J40/14692/2020,RO,Equity Real Estate Investment Trusts (REITs),North Ware House Siemens,INDUSTRIAL,,"Unnamed Road, VJC2+P23_ _______ ______ 13341, Saudi Arabia",Saudi Arabia,,24.8717574,46.6000522,medium
96_SIEMENS-ENERGY-AG,Siemens Energy AG,5299005CHJZ14D4FDJ62,HRB 252581,DE,Siemens Energy Services S.R.L.,5299006KP6CXG2O2XV80,J40/14692/2020,RO,Equity Real Estate Investment Trusts (REITs),Siemens Goole,INDUSTRIAL,,"Goole DN14 6XF, UK",United Kingdom,,53.6991779,-0.8936199,medium
97_SIEMENS-ENERGY-AG,Siemens Energy AG,5299005CHJZ14D4FDJ62,HRB 252581,DE,Wheelabrator Air Pollution Control,549300MF214740YQCU91,D05544762,US-MD,Commercial & Professional Services,AMEC Foster Wheeler,HIGH_ST,,"501 Grant St, Pittsburgh, PA 15219, USA",United States,,40.4399628,-79.9969732,high
98_SIEMENS-ENERGY-AG,Siemens Energy AG,5299005CHJZ14D4FDJ62,HRB 252581,DE,Wheelabrator Air Pollution Control,549300MF214740YQCU91,D05544762,US-MD,Commercial & Professional Services,Wheelabrator Group,INDUSTRIAL,,"1606 Executive Dr, LaGrange, GA 30240, USA",United States,,33.0083316,-85.0632583,medium
99_SIEMENS-ENERGY-AG,Siemens Energy AG,5299005CHJZ14D4FDJ62,HRB 252581,DE,Wheelabrator Air Pollution Control,549300MF214740YQCU91,D05544762,US-MD,Commercial & Professional Services,Wheelabrator,INDUSTRIAL,,"331 SW Cutoff, Millbury, MA 01527, USA",United States,,42.2214194,-71.765467,medium
100_SIEMENS-ENERGY-AG,Siemens Energy AG,5299005CHJZ14D4FDJ62,HRB 252581,DE,Wheelabrator Air Pollution Control,549300MF214740YQCU91,D05544762,US-MD,Commercial & Professional Services,Wheelabrator Technologies,INDUSTRIAL,,"98 Sand Dock Rd, Poughkeepsie, NY 12601, USA",United States,,41.6473724,-73.9423431,medium
101_SIEMENS-ENERGY-AG,Siemens Energy AG,5299005CHJZ14D4FDJ62,HRB 252581,DE,Wheelabrator Air Pollution Control,549300MF214740YQCU91,D05544762,US-MD,Commercial & Professional Services,Wheelabrator Impact,MIXED_USE,,"107-109 Whitby Rd, Slough SL1 3DR, UK",United Kingdom,,51.5182823,-0.6129555,medium
102_SIEMENS-ENERGY-AG,Siemens Energy AG,5299005CHJZ14D4FDJ62,HRB 252581,DE,Wheelabrator Air Pollution Control,549300MF214740YQCU91,D05544762,US-MD,Commercial & Professional Services,Wheelabrator,INDUSTRIAL,,"28-30 Chem. de Tournenfils, 91540 Mennecy, France",France,,48.5695808,2.450901,medium
103_SIEMENS-ENERGY-AG,Siemens Energy AG,5299005CHJZ14D4FDJ62,HRB 252581,DE,Wheelabrator Air Pollution Control,549300MF214740YQCU91,D05544762,US-MD,Commercial & Professional Services,Wheelabrator Group NV,INDUSTRIAL,,"Maalbeekweg 61, 1930 Zaventem, Belgium",Belgium,,50.8850294,4.4612945,medium
104_SIEMENS-ENERGY-AG,Siemens Energy AG,5299005CHJZ14D4FDJ62,HRB 252581,DE,Wheelabrator Air Pollution Control,549300MF214740YQCU91,D05544762,US-MD,Commercial & Professional Services,Wheelabrator Group S.L.U,INDUSTRIAL,,"Gran Via de les Corts Catalanes, 133, Sants-Montjuïc, 08025 Barcelona, Spain",Spain,,41.3656526,2.1362061,medium
105_SIEMENS-ENERGY-AG,Siemens Energy AG,5299005CHJZ14D4FDJ62,HRB 252581,DE,Wheelabrator Air Pollution Control,549300MF214740YQCU91,D05544762,US-MD,Commercial & Professional Services,Wheelabrator Group GmbH,INDUSTRIAL,,"Industriestraße 55, 48629 Metelen, Germany",Germany,,52.1581485,7.244188,medium
106_SIEMENS-ENERGY-AG,Siemens Energy AG,5299005CHJZ14D4FDJ62,HRB 252581,DE,Wheelabrator Air Pollution Control,549300MF214740YQCU91,D05544762,US-MD,Commercial & Professional Services,"Wheelabrator Group Ltd., Head Office",OFFICE,,"22 Edward Ct, Broadheath, Altrincham WA14 5GL, UK",United Kingdom,,53.3988222,-2.3670715,medium
107_SIEMENS-ENERGY-AG,Siemens Energy AG,5299005CHJZ14D4FDJ62,HRB 252581,DE,"RWG (Repair & Overhauls) Limited, Aberdeen/ United Kingdom",,,,Energy,RWG Repair and Overhaul,MIXED_USE,,"Kirkhill Dr, Dyce, Aberdeen AB21 0EU, UK",United Kingdom,,57.2089229,-2.2103035,medium
108_SIEMENS-ENERGY-AG,Siemens Energy AG,5299005CHJZ14D4FDJ62,HRB 252581,DE,"RWG (Repair & Overhauls) Limited, Aberdeen/ United Kingdom",,,,Energy,RWG,MIXED_USE,,"12 Wellheads Cres, Aberdeen AB21 7GD, UK",United Kingdom,,57.198207,-2.1886834,medium
109_SIEMENS-ENERGY-AG,Siemens Energy AG,5299005CHJZ14D4FDJ62,HRB 252581,DE,"RWG (Repair & Overhauls) Limited, Aberdeen/ United Kingdom",,,,Energy,RWG Repairs and Overhauls,MIXED_USE,,"6223 W Sam Houston Pkwy N, Houston, TX 77041, USA",United States,,29.8584117,-95.5675811,medium
110_SIEMENS-ENERGY-AG,Siemens Energy AG,5299005CHJZ14D4FDJ62,HRB 252581,DE,Gamesa Electric,9598007U5ARGFYZF4F61,BI-43091-8,ES,Capital Goods,Gamesa Electric,INDUSTRIAL,,"C. del Mar Mediterráneo, 16, 28830 San Fernando de Henares, Madrid, Spain",Spain,,40.4554578,-3.5000131,high
111_SIEMENS-ENERGY-AG,Siemens Energy AG,5299005CHJZ14D4FDJ62,HRB 252581,DE,Gamesa Electric,9598007U5ARGFYZF4F61,BI-43091-8,ES,Capital Goods,Siemens Gamesa Renewable Energy,SINGLE_RES,,"174 Av. du Languedoc, 81320 Murat-sur-Vèbre, France",France,,43.684231,2.8570946,medium
112_SIEMENS-ENERGY-AG,Siemens Energy AG,5299005CHJZ14D4FDJ62,HRB 252581,DE,Gamesa Electric,9598007U5ARGFYZF4F61,BI-43091-8,ES,Capital Goods,"Gamesa Energía, S.A.",INDUSTRIAL,,"Plaza Gamarra, 40, Aptdo 628, 01013 Vitoria-Gasteiz, Araba, Spain",Spain,,42.8658034,-2.6594931,high
113_SIEMENS-ENERGY-AG,Siemens Energy AG,5299005CHJZ14D4FDJ62,HRB 252581,DE,Gamesa Electric,9598007U5ARGFYZF4F61,BI-43091-8,ES,Capital Goods,Gamesa Eolica,INDUSTRIAL,,"C. 2, Bruno Pagliai, 91697 Valente Díaz, Ver., Mexico",Mexico,,19.1621388,-96.2437658,high
114_SIEMENS-ENERGY-AG,Siemens Energy AG,5299005CHJZ14D4FDJ62,HRB 252581,DE,Gamesa Electric,9598007U5ARGFYZF4F61,BI-43091-8,ES,Capital Goods,Gamesa Electric,INDUSTRIAL,,"Polígono Parque Tecnológico, 206, 48170 Zamudio, Vizcaya, Spain",Spain,,43.294615,-2.8628922,high
115_SIEMENS-ENERGY-AG,Siemens Energy AG,5299005CHJZ14D4FDJ62,HRB 252581,DE,Gamesa Electric,9598007U5ARGFYZF4F61,BI-43091-8,ES,Capital Goods,"Gamesa Wind _Tianjin_ Co.,Ltd.",INDUSTRIAL,,"8 Chuang Xin Si Lu, Xi Qing Qu, Tian Jin Shi, China, 300392",China,,39.0774591,117.0700132,medium
116_SIEMENS-ENERGY-AG,Siemens Energy AG,5299005CHJZ14D4FDJ62,HRB 252581,DE,Gamesa Electric,9598007U5ARGFYZF4F61,BI-43091-8,ES,Capital Goods,Gamesa Reinosa S.A.,INDUSTRIAL,,"C. Alejandro de Calonge, 3, 39200 Reinosa, Cantabria, Spain",Spain,,42.9905776,-4.1405515,medium
117_SIEMENS-ENERGY-AG,Siemens Energy AG,5299005CHJZ14D4FDJ62,HRB 252581,DE,Gamesa Electric,9598007U5ARGFYZF4F61,BI-43091-8,ES,Capital Goods,Siemens Gamesa Solar,INDUSTRIAL,,"Q8X5+8QF, Unnamed Road, Melappaguthi, Tamil Nadu 621301, India",India,,10.798323,78.309416,medium
118_SIEMENS-ENERGY-AG,Siemens Energy AG,5299005CHJZ14D4FDJ62,HRB 252581,DE,Gamesa Electric,9598007U5ARGFYZF4F61,BI-43091-8,ES,Capital Goods,Gamesa Electric,INDUSTRIAL,,"Polígono Parque Tecnológico, 206",Spain,,43.28853,-2.8593411,high
119_SIEMENS-ENERGY-AG,Siemens Energy AG,5299005CHJZ14D4FDJ62,HRB 252581,DE,Siemens Energy Power Control GmbH,52990032FMA3WJ57I432,HRB 41983,DE,,Siemens Energy Power Control GmbH,HIGH_ST,,"Robert-Bosch-Straße 25, 63225 Langen (Hessen), Germany",Germany,,50.0027455,8.6564115,high
120_SIEMENS-ENERGY-AG,Siemens Energy AG,5299005CHJZ14D4FDJ62,HRB 252581,DE,Siemens Energy Power Control GmbH,52990032FMA3WJ57I432,HRB 41983,DE,,Siemens Energy Power Academy,INDUSTRIAL,,"99 Makriel Rd, Wadeville, Germiston, 1422, South Africa",South Africa,,-26.2720936,28.1868817,high
121_SIEMENS-ENERGY-AG,Siemens Energy AG,5299005CHJZ14D4FDJ62,HRB 252581,DE,Siemens Energy Power Control GmbH,52990032FMA3WJ57I432,HRB 41983,DE,,Power Control Equipments,INDUSTRIAL,,"40A, Vaddarapalya, Jigani, Karnataka 562106, India",India,,12.7696818,77.6414028,medium
122_SIEMENS-ENERGY-AG,Siemens Energy AG,5299005CHJZ14D4FDJ62,HRB 252581,DE,Siemens Energy Power Control GmbH,52990032FMA3WJ57I432,HRB 41983,DE,,Siemens Industry Inc,INDUSTRIAL,,"444 US 49, Richland, MS 39218, USA",United States,,32.2488937,-90.1600646,medium
123_SIEMENS-ENERGY-AG,Siemens Energy AG,5299005CHJZ14D4FDJ62,HRB 252581,DE,Siemens Energy Power Control GmbH,52990032FMA3WJ57I432,HRB 41983,DE,,Siemens Limited,INDUSTRIAL,,"VFHQ+C98, Shendra MIDC, Gangapur Jahagir, Chhatrapati Sambhaji Nagar, Maharashtra 431007, India",India,,19.8785275,75.4884456,medium
124_SIEMENS-ENERGY-AG,Siemens Energy AG,5299005CHJZ14D4FDJ62,HRB 252581,DE,Materials Solutions - a Siemens Energy Business,529900R9H69320NY0Q21,9364823,GB,Materials,Materials Solutions,OFFICE,,"Unit 4 Worcester Six Business Park Coneybury Road, Worcester WR4 0AD, UK",United Kingdom,,52.2016983,-2.1568431,high
125_SIEMENS-ENERGY-AG,Siemens Energy AG,5299005CHJZ14D4FDJ62,HRB 252581,DE,Materials Solutions - a Siemens Energy Business,529900R9H69320NY0Q21,9364823,GB,Materials,Material Solutions,HIGH_ST,,"34, New House, 67-68 Hatton Garden, London EC1N 8JY, UK",United Kingdom,,51.5208788,-0.1088713,medium
126_SIEMENS-ENERGY-AG,Siemens Energy AG,5299005CHJZ14D4FDJ62,HRB 252581,DE,Materials Solutions - a Siemens Energy Business,529900R9H69320NY0Q21,9364823,GB,Materials,Siemens,HIGH_ST,,"400 Rinehart Rd, Lake Mary, FL 32746, USA",United States,,28.7673851,-81.3472719,medium
127_SIEMENS-ENERGY-AG,Siemens Energy AG,5299005CHJZ14D4FDJ62,HRB 252581,DE,Materials Solutions - a Siemens Energy Business,529900R9H69320NY0Q21,9364823,GB,Materials,Siemens Gamesa Renewable Energy,HIGH_ST,,"Anderston House, 389 Argyle St, Glasgow G2 8LR, UK",United Kingdom,,55.8586844,-4.264645,medium
128_SIEMENS-ENERGY-AG,Siemens Energy AG,5299005CHJZ14D4FDJ62,HRB 252581,DE,Materials Solutions - a Siemens Energy Business,529900R9H69320NY0Q21,9364823,GB,Materials,Siemens,INDUSTRIAL,,"Oslo, Norway",Norway,,59.937977,10.837374,medium
129_SIEMENS-ENERGY-AG,Siemens Energy AG,5299005CHJZ14D4FDJ62,HRB 252581,DE,Siemens Energy Staffing Inc.,5493005S0S3KYED5YR68,209119,US-DE,Commercial & Professional Services,Siemens Energy Staffing Inc,OFFICE,,"3504 Lake Lynda Dr Suite #390, Orlando, FL 32817, USA",United States,,28.6008927,-81.2232481,high
130_SIEMENS-ENERGY-AG,Siemens Energy AG,5299005CHJZ14D4FDJ62,HRB 252581,DE,Siemens Energy Staffing Inc.,5493005S0S3KYED5YR68,209119,US-DE,Commercial & Professional Services,Siemens,HIGH_ST,,"11 Marsh Ave #2, Worcester, MA 01605, USA",United States,,42.2911995,-71.7790901,medium
131_SIEMENS-ENERGY-AG,Siemens Energy AG,5299005CHJZ14D4FDJ62,HRB 252581,DE,Siemens Gamesa Renewable Energy Ltd.,,,,Utilities,Siemens Gamesa Renewable Energy,OFFICE,,"Watchmoor Park, Riverside Way, Camberley GU15 3YL, UK",United Kingdom,,51.3265266,-0.7615074,high
132_SIEMENS-ENERGY-AG,Siemens Energy AG,5299005CHJZ14D4FDJ62,HRB 252581,DE,Siemens Gamesa Renewable Energy Ltd.,,,,Utilities,Siemens Gamesa Renewable Energy,INDUSTRIAL,,"Service Rd, Red Hills, Chennai, Tamil Nadu 600066, India",India,,13.1823478,80.1931884,high
133_SIEMENS-ENERGY-AG,Siemens Energy AG,5299005CHJZ14D4FDJ62,HRB 252581,DE,Siemens Gamesa Renewable Energy Ltd.,,,,Utilities,Siemens Gamesa Renewable Energy,MIXED_USE,,"Alexandra Dock, Hull HU9 1TA, UK",United Kingdom,,53.7443493,-0.3046596,high
134_SIEMENS-ENERGY-AG,Siemens Energy AG,5299005CHJZ14D4FDJ62,HRB 252581,DE,Siemens Gamesa Renewable Energy Ltd.,,,,Utilities,Siemens Gamesa Renewable Energy,HIGH_ST,,"Pr. Beatrixlaan 800, 2595 BN Den Haag, Netherlands",Netherlands,,52.0779266,4.3382325,high
135_SIEMENS-ENERGY-AG,Siemens Energy AG,5299005CHJZ14D4FDJ62,HRB 252581,DE,Siemens Gamesa Renewable Energy Ltd.,,,,Utilities,Siemens Gamesa Renewable Energy,HIGH_ST,,"84, Hosur Rd, Phase II, Electronic City, Bengaluru, Doddanagamangala Village, Karnataka 560100, India",India,,12.8466162,77.6784424,high
136_SIEMENS-ENERGY-AG,Siemens Energy AG,5299005CHJZ14D4FDJ62,HRB 252581,DE,Siemens Gamesa Renewable Energy Ltd.,,,,Utilities,Siemens Gamesa Renewable Energy,INDUSTRIAL,,"19 Phoenix Cres, Bellshill ML4 3BF, UK",United Kingdom,,55.8345676,-4.0327331,high
137_SIEMENS-ENERGY-AG,Siemens Energy AG,5299005CHJZ14D4FDJ62,HRB 252581,DE,Siemens Gamesa Renewable Energy Ltd.,,,,Utilities,Siemens Gamesa Renewable Power Pvt Ltd,INDUSTRIAL,,"RH43+V2, Shiracha, Gujarat 370435, India",India,,22.8071503,69.55259,high
138_SIEMENS-ENERGY-AG,Siemens Energy AG,5299005CHJZ14D4FDJ62,HRB 252581,DE,Siemens Gamesa Renewable Energy Ltd.,,,,Utilities,Siemens Gamesa Renewable Energy,OFFICE,,"Unit 5, The Courtyard, Darcy Business Park, Llandarcy, Skewen, Neath SA10 6EJ, UK",United Kingdom,,51.6490879,-3.85237,high
139_SIEMENS-ENERGY-AG,Siemens Energy AG,5299005CHJZ14D4FDJ62,HRB 252581,DE,Siemens Gamesa Renewable Energy Ltd.,,,,Utilities,Siemens Gamesa Renewable Energy,INDUSTRIAL,,"JXPH+QFF Racharlapadu, Post, Kammapalem, North Amuluru, Andhra Pradesh 524319, India",India,,14.6369375,79.9786719,high
140_SIEMENS-ENERGY-AG,Siemens Energy AG,5299005CHJZ14D4FDJ62,HRB 252581,DE,Siemens Gamesa Renewable Energy Ltd.,,,,Utilities,Siemens Gamesa Renewable Energy,TRANSPORT,,"131 Av. Lucien Corbeaux, 76600 Le Havre, France",France,,49.4791627,0.1320821,high
141_SIEMENS-ENERGY-AG,Siemens Energy AG,5299005CHJZ14D4FDJ62,HRB 252581,DE,Siemens Gamesa Renewable Energy Ltd.,,,,Utilities,Siemens Gamesa Renewable Energy,MIXED_USE,,"Eastside Rd, Grimsby DN31 3NB, UK",United Kingdom,,53.5821997,-0.0690212,high
142_SIEMENS-ENERGY-AG,Siemens Energy AG,5299005CHJZ14D4FDJ62,HRB 252581,DE,Siemens Gamesa Renewable Energy Ltd.,,,,Utilities,"Siemens Gamesa Renewable Energy Pvt Ltd Sheo, Rajsthan",INDUSTRIAL,,"57VX+P4W, Ambabari, Rajasthan 344701, India",India,,26.1943728,71.2978299,high
143_SIEMENS-ENERGY-AG,Siemens Energy AG,5299005CHJZ14D4FDJ62,HRB 252581,DE,Siemens Gamesa Renewable Energy Ltd.,,,,Utilities,Siemens Gamesa Renewable Power Pvt Ltd,INDUSTRIAL,,"No.3A, Phase-III, Halol G I D C, Halol, Chandrapura, Gujarat 389350, India",India,,22.5420688,73.4384786,high
144_SIEMENS-ENERGY-AG,Siemens Energy AG,5299005CHJZ14D4FDJ62,HRB 252581,DE,Siemens Gamesa Renewable Energy Ltd.,,,,Utilities,Siemens Gamesa Renewable Energy,OFFICE,,"10 Av. de l'Arche, 92400 Courbevoie, France",France,,48.8954336,2.2386759,high
145_SIEMENS-ENERGY-AG,Siemens Energy AG,5299005CHJZ14D4FDJ62,HRB 252581,DE,Siemens Gamesa Renewable Energy Ltd.,,,,Utilities,Siemens Gamesa Renewable Energy,INDUSTRIAL,,"Beim Strohhause 17-31, 20097 Hamburg, Germany",Germany,,53.5540366,10.0216247,high
146_SIEMENS-ENERGY-AG,Siemens Energy AG,5299005CHJZ14D4FDJ62,HRB 252581,DE,Siemens Gamesa Renewable Energy Ltd.,,,,Utilities,Siemens gamesa renewable energy,INDUSTRIAL,,"4PR8+939, Tamil Nadu 628552, India",India,,9.1409151,77.7152453,high
147_SIEMENS-ENERGY-AG,Siemens Energy AG,5299005CHJZ14D4FDJ62,HRB 252581,DE,Siemens Gamesa Renewable Energy Ltd.,,,,Utilities,Siemensgamesa Renewable Energy,INDUSTRIAL,,"Esplanadestraat 14, 8400 Oostende, Belgium",Belgium,,51.2276079,2.9342891,high
148_SIEMENS-ENERGY-AG,Siemens Energy AG,5299005CHJZ14D4FDJ62,HRB 252581,DE,Siemens Gamesa Renewable Energy Ltd.,,,,Utilities,Siemens Gamesa Renewable Energy,INDUSTRIAL,,"Borupvej 16, 7330 Brande, Denmark",Denmark,,55.9557848,9.1213348,high
149_SIEMENS-ENERGY-AG,Siemens Energy AG,5299005CHJZ14D4FDJ62,HRB 252581,DE,Siemens Gamesa Renewable Energy Ltd.,,,,Utilities,Siemens Gamesa Renewable Energy,INDUSTRIAL,,"Parque Tecnológico de Bizkaia Edificio 222, 48170 Zamudio, Bizkaia, Spain",Spain,,43.2920535,-2.8604982,high
150_SIEMENS-ENERGY-AG,Siemens Energy AG,5299005CHJZ14D4FDJ62,HRB 252581,DE,Siemens Gamesa Renewable Energy Ltd.,,,,Utilities,Siemens Energy,INDUSTRIAL,,"Av. Ciudad de la Innovación, 2, 31621 Sarriguren, Navarra, Spain",Spain,,42.8163618,-1.5995035,high
151_SIEMENS-ENERGY-AG,Siemens Energy AG,5299005CHJZ14D4FDJ62,HRB 252581,DE,Siemens Gamesa Renewable Energy Ltd.,,,,Utilities,Siemensgamesa fecamp,INDUSTRIAL,,"2 Rue du Commandant Riondel, 76400 Fécamp, France",France,,49.7617269,0.3689479,medium
152_SIEMENS-ENERGY-AG,Siemens Energy AG,5299005CHJZ14D4FDJ62,HRB 252581,DE,Siemens Gamesa Renewable Energy Ltd.,,,,Utilities,Siemens Gamesa Training Centre,MIXED_USE,,"Captain Don, Alexandra Dock, Ellerby Way, Hull HU9 1BT, UK",United Kingdom,,53.7434326,-0.2896193,high
153_SIEMENS-ENERGY-AG,Siemens Energy AG,5299005CHJZ14D4FDJ62,HRB 252581,DE,Siemens Gamesa Renewable Energy Ltd.,,,,Utilities,Siemens Gamesa Kontich,INDUSTRIAL,,"Singel 4a, 2550 Kontich, Belgium",Belgium,,51.1248833,4.4575634,high
154_SIEMENS-ENERGY-AG,Siemens Energy AG,5299005CHJZ14D4FDJ62,HRB 252581,DE,Siemens Gamesa Renewable Energy Ltd.,,,,Utilities,Siemens Gamesa,INDUSTRIAL,,"5377 Somme-Leuze, Belgium",Belgium,,50.2925836,5.3550194,high
155_SIEMENS-ENERGY-AG,Siemens Energy AG,5299005CHJZ14D4FDJ62,HRB 252581,DE,Siemens Gamesa Renewable Energy Ltd.,,,,Utilities,Siemens Gamesa Renewable Energy,MIXED_USE,,"C. de Ramírez de Arellano, 37, Cdad. Lineal, 28043 Madrid, Spain",Spain,,40.4461454,-3.6579555,high
156_SIEMENS-ENERGY-AG,Siemens Energy AG,5299005CHJZ14D4FDJ62,HRB 252581,DE,Siemens Gamesa Renewable Energy Ltd.,,,,Utilities,"Siemens Gamesa Renewable Energy, Inc",INDUSTRIAL,,"1050 Walnut St # 303, Boulder, CO 80302, USA",United States,,40.0162446,-105.2813233,high
157_SIEMENS-ENERGY-AG,Siemens Energy AG,5299005CHJZ14D4FDJ62,HRB 252581,DE,Siemens Gamesa Renewable Energy Ltd.,,,,Utilities,SIEMENS GAMESA RENEWABLE ENERGY,SINGLE_RES,,"9 Av. Irma Masson, 52300 Joinville, France",France,,48.4341644,5.1376719,high
158_SIEMENS-ENERGY-AG,Siemens Energy AG,5299005CHJZ14D4FDJ62,HRB 252581,DE,Siemens Gamesa Renewable Energy Ltd.,,,,Utilities,Siemens Gamesa Renewable Energy,HIGH_ST,,"Rue du Moulin, 79460 Magné, France",France,,46.318955,-0.5593987,high
159_SIEMENS-ENERGY-AG,Siemens Energy AG,5299005CHJZ14D4FDJ62,HRB 252581,DE,Siemens Gamesa Renewable Energy Ltd.,,,,Utilities,SGRE Lesquin Office Siemens Gamesa Renewable Energy Service SAS,OFFICE,,"917 Rue des Saules, 59810 Lesquin, France",France,,50.5924667,3.1317167,medium
160_SIEMENS-ENERGY-AG,Siemens Energy AG,5299005CHJZ14D4FDJ62,HRB 252581,DE,Siemens Gamesa Renewable Energy Ltd.,,,,Utilities,Siemens Gamesa Renewable Energy,INDUSTRIAL,,"28 Av. Louis Martin, 35400 Saint-Malo, France",France,,48.6494158,-2.0174649,high
161_SIEMENS-ENERGY-AG,Siemens Energy AG,5299005CHJZ14D4FDJ62,HRB 252581,DE,Siemens Gamesa Renewable Energy Ltd.,,,,Utilities,Siemens Gamesa Renewable Energy,HIGH_ST,,"_upnicza 11, 03-821 Warszawa, Poland",Poland,,52.2511596,21.060696,high
162_SIEMENS-ENERGY-AG,Siemens Energy AG,5299005CHJZ14D4FDJ62,HRB 252581,DE,Siemens Gamesa Renewable Energy Ltd.,,,,Utilities,Siemens Gamesa Renewable Energy,INDUSTRIAL,,"1150 Northbrook Dr, Feasterville-Trevose, PA 19053, USA",United States,,40.142191,-74.9606708,high
163_SIEMENS-ENERGY-AG,Siemens Energy AG,5299005CHJZ14D4FDJ62,HRB 252581,DE,Siemens Gamesa Renewable Energy Ltd.,,,,Utilities,Siemens Gamesa Renewable Power Pvt Ltd,INDUSTRIAL,,"262C+M8J, Kalorana, Gujarat 365410, India",India,,22.0017108,71.2207714,high
164_SIEMENS-ENERGY-AG,Siemens Energy AG,5299005CHJZ14D4FDJ62,HRB 252581,DE,Siemens Gamesa Renewable Energy Ltd.,,,,Utilities,Siemens Gamesa Renewable Power Pvt Ltd Warehouse,WAREHOUSE,,"JW3F+C68, Kolambakkam, Tamil Nadu 603308, India",India,,12.603539,79.9230653,high
165_SIEMENS-ENERGY-AG,Siemens Energy AG,5299005CHJZ14D4FDJ62,HRB 252581,DE,Siemens Gamesa Renewable Energy Ltd.,,,,Utilities,Siemens Gamesa Renewable Power Pvt Ltd,INDUSTRIAL,,"3RR7+6J8, Khirai, Gujarat 363670, India",India,,23.0905402,70.814092,high
166_SIEMENS-ENERGY-AG,Siemens Energy AG,5299005CHJZ14D4FDJ62,HRB 252581,DE,Siemens Gamesa Renewable Energy Ltd.,,,,Utilities,SIEMENS GAMESA RENEWABLE POWER PVT LTD,INDUSTRIAL,,"No. 89/A, 4th Cross Rd E, JCR Extension, Maniyur, Chitradurga, Karnataka 577501, India",India,,14.233491,76.4049254,high
167_SIEMENS-ENERGY-AG,Siemens Energy AG,5299005CHJZ14D4FDJ62,HRB 252581,DE,Siemens Gamesa Renewable Energy Ltd.,,,,Utilities,Siemens Gamesa Renewable Energy,INDUSTRIAL,,"Via Privata Vipiteno, 4, 20128 Milano MI, Italy",Italy,,45.5112934,9.2389542,high
168_SIEMENS-ENERGY-AG,Siemens Energy AG,5299005CHJZ14D4FDJ62,HRB 252581,DE,Siemens Gamesa Renewable Energy Ltd.,,,,Utilities,Siemens Gamesa renewable energy pvt,INDUSTRIAL,,"SH 128, Toppal Doddi, Karnataka 584120, India",India,,16.1672643,76.7861473,high
169_SIEMENS-ENERGY-AG,Siemens Energy AG,5299005CHJZ14D4FDJ62,HRB 252581,DE,Siemens Gamesa Renewable Energy Ltd.,,,,Utilities,Siemens Gamesa Renewable Energy,INDUSTRIAL,,"1000 Commerce St, Hutchinson, KS 67501, USA",United States,,38.0364264,-97.8793236,high
170_SIEMENS-ENERGY-AG,Siemens Energy AG,5299005CHJZ14D4FDJ62,HRB 252581,DE,Siemens Gamesa Renewable Energy Ltd.,,,,Utilities,Siemens Gamesa Renewable Energy,HIGH_ST,,"1577 North Service Rd E, Oakville, ON L6H 1A7, Canada",Canada,,43.487892,-79.6749137,high
171_SIEMENS-ENERGY-AG,Siemens Energy AG,5299005CHJZ14D4FDJ62,HRB 252581,DE,Siemens Gamesa Renewable Energy Ltd.,,,,Utilities,Siemens Gamesa Renewable Energy,INDUSTRIAL,,"Assensvej 11, 9220 Aalborg, Denmark",Denmark,,57.0412937,10.0309989,high
172_SIEMENS-ENERGY-AG,Siemens Energy AG,5299005CHJZ14D4FDJ62,HRB 252581,DE,Siemens Gamesa Renewable Energy Ltd.,,,,Utilities,Siemens Gamesa Renewable Energy,INDUSTRIAL,,"Källebacksvägen 2C, 554 75 Jönköping, Sweden",Sweden,,57.7664319,14.1008031,high
173_SIEMENS-ENERGY-AG,Siemens Energy AG,5299005CHJZ14D4FDJ62,HRB 252581,DE,Siemens Gamesa Renewable Energy Ltd.,,,,Utilities,Siemens Gamesa Renewable Energy A/S,INDUSTRIAL,,"Middelfartvej 6, 9220 Aalborg, Denmark",Denmark,,57.0430821,10.0338576,high
174_SIEMENS-ENERGY-AG,Siemens Energy AG,5299005CHJZ14D4FDJ62,HRB 252581,DE,Siemens Gamesa Renewable Energy Ltd.,,,,Utilities,Siemens Gamesa Renewable Energy,MIXED_USE,,"1 Brewster Square, Livingston EH54 9BJ, UK",United Kingdom,,55.866753,-3.531879,high
175_SIEMENS-ENERGY-AG,Siemens Energy AG,5299005CHJZ14D4FDJ62,HRB 252581,DE,Siemens Gamesa Renewable Energy Ltd.,,,,Utilities,Siemens Gamesa Renewable Energy,INDUSTRIAL,,"5 Willowbank Rd, Milbrook, Larne BT40 2SF, UK",United Kingdom,,54.8433527,-5.8580221,high
176_SIEMENS-ENERGY-AG,Siemens Energy AG,5299005CHJZ14D4FDJ62,HRB 252581,DE,Siemens Gamesa Renewable Energy Ltd.,,,,Utilities,Siemens Gamesa Renewable Energy,INDUSTRIAL,,"C. Soto Aizoáin, 2-168, 56, 31013 Pamplona, Navarra, Spain",Spain,,42.8305994,-1.6853371,high
177_SIEMENS-ENERGY-AG,Siemens Energy AG,5299005CHJZ14D4FDJ62,HRB 252581,DE,Siemens Gamesa Renewable Energy Ltd.,,,,Utilities,"Siemens Gamesa Renewable Energy Blades, S.A.",INDUSTRIAL,,"R. da Barreira 25, 3840-346 Sosa, Portugal",Portugal,,40.5609147,-8.6118131,high
178_SIEMENS-ENERGY-AG,Siemens Energy AG,5299005CHJZ14D4FDJ62,HRB 252581,DE,Siemens Gamesa Renewable Energy Ltd.,,,,Utilities,Siemens Gamesa Renewable Energy,INDUSTRIAL,,"Via Pasteur, 7, 15890 Santiago de Compostela, La Coruña, Spain",Spain,,42.9104322,-8.5143623,high
179_SIEMENS-ENERGY-AG,Siemens Energy AG,5299005CHJZ14D4FDJ62,HRB 252581,DE,Siemens Gamesa Renewable Energy Ltd.,,,,Utilities,Siemens Gamesa Renewable Energy,INDUSTRIAL,,"XXP2+JV5, Thoothukudi, Tamil Nadu 628718, India",India,,8.9865095,77.9522191,high
180_SIEMENS-ENERGY-AG,Siemens Energy AG,5299005CHJZ14D4FDJ62,HRB 252581,DE,Siemens Gamesa Renewable Energy Ltd.,,,,Utilities,Siemens Gamesa Renewable Energy B.V. (former Senvion Netherlands B.V.),INDUSTRIAL,,"Sluiswachter 20J, 3861 SN Nijkerk, Netherlands",Netherlands,,52.2303401,5.4607341,high
181_SIEMENS-ENERGY-AG,Siemens Energy AG,5299005CHJZ14D4FDJ62,HRB 252581,DE,Siemens Gamesa Renewable Energy Ltd.,,,,Utilities,Siemens Gamesa Renewable Energy Service GmbH,INDUSTRIAL,,"An d. Sechta 4/1, 73479 Ellwangen (Jagst), Germany",Germany,,48.937046,10.2101535,high
182_SIEMENS-ENERGY-AG,Siemens Energy AG,5299005CHJZ14D4FDJ62,HRB 252581,DE,Siemens Gamesa Renewable Energy Ltd.,,,,Utilities,Siemens Gamesa Renewable Energy,INDUSTRIAL,,"Vasant Nagar, Hubballi, Karnataka 580023, India",India,,15.3618721,75.1551645,high
183_SIEMENS-ENERGY-AG,Siemens Energy AG,5299005CHJZ14D4FDJ62,HRB 252581,DE,Siemens Gamesa Renewable Energy Ltd.,,,,Utilities,Siemens Gamesa Renewable Energy,HIGH_ST,,"Leona Droszy_skiego 24, 80-381 Gda_sk, Poland",Poland,,54.4089117,18.5737026,high
184_SIEMENS-ENERGY-AG,Siemens Energy AG,5299005CHJZ14D4FDJ62,HRB 252581,DE,Siemens Gamesa Renewable Energy Ltd.,,,,Utilities,Siemens Gamesa Renewable Energy,OFFICE,,"Johanneslundsvägen 12, 194 61 Upplands Väsby, Sweden",Sweden,,59.5063791,17.9227017,high
185_SIEMENS-ENERGY-AG,Siemens Energy AG,5299005CHJZ14D4FDJ62,HRB 252581,DE,Siemens Gamesa Renewable Energy Ltd.,,,,Utilities,Siemens Gamesa renewable energy,INDUSTRIAL,,"Skästranoret 1, 827 53 Järvsö, Sweden",Sweden,,61.7537691,16.1554973,high
186_SIEMENS-ENERGY-AG,Siemens Energy AG,5299005CHJZ14D4FDJ62,HRB 252581,DE,Siemens Gamesa Renewable Energy Ltd.,,,,Utilities,Siemens Gamesa Renewable Energy Service GmbH,MIXED_USE,,"Liegauer Str. 15A, 01465 Dresden, Germany",Germany,,51.1293821,13.8469022,high
187_SIEMENS-ENERGY-AG,Siemens Energy AG,5299005CHJZ14D4FDJ62,HRB 252581,DE,Siemens Gamesa Renewable Energy Ltd.,,,,Utilities,SiemensGamesa Renewable Energy Service GmbH,INDUSTRIAL,,"Karl-Carstens-Straße 3, 52146 Würselen, Germany",Germany,,50.8109957,6.1669486,high
188_SIEMENS-ENERGY-AG,Siemens Energy AG,5299005CHJZ14D4FDJ62,HRB 252581,DE,Siemens Gamesa Renewable Energy Ltd.,,,,Utilities,Siemens Gamesa Renewable Energy Service GmbH,HIGH_ST,,"Lecker Str. 7, 25917 Enge-Sande, Germany",Germany,,54.7405361,8.9602632,high
189_SIEMENS-ENERGY-AG,Siemens Energy AG,5299005CHJZ14D4FDJ62,HRB 252581,DE,Siemens Gamesa Renewable Energy Ltd.,,,,Utilities,Siemens Gamesa Renewable Energy Service GmbH,INDUSTRIAL,,"Am Herdicksbach 2, 45731 Waltrop, Germany",Germany,,51.6082326,7.3916027,high
190_SIEMENS-ENERGY-AG,Siemens Energy AG,5299005CHJZ14D4FDJ62,HRB 252581,DE,Siemens Gamesa Renewable Energy Ltd.,,,,Utilities,Siemens Gamesa Renewable Energy Service GmbH,HIGH_ST,,"Albert-Betz-Straße 1, 24783 Osterrönfeld, Germany",Germany,,54.2893935,9.6709055,high
191_SIEMENS-ENERGY-AG,Siemens Energy AG,5299005CHJZ14D4FDJ62,HRB 252581,DE,Siemens Gamesa Renewable Energy Ltd.,,,,Utilities,Siemens Gamesa Renewable Energy Service GmbH,SINGLE_RES,,"Hauptstraße 5A, 25715 Averlak, Germany",Germany,,53.9489556,9.1722569,high
192_SIEMENS-ENERGY-AG,Siemens Energy AG,5299005CHJZ14D4FDJ62,HRB 252581,DE,Siemens Gamesa Renewable Energy Ltd.,,,,Utilities,Siemens Gamesa Renewable Energy Service GmbH,SINGLE_RES,,"Michaelisstraße 10, 16225 Eberswalde, Germany",Germany,,52.83402,13.8178399,high
193_SIEMENS-ENERGY-AG,Siemens Energy AG,5299005CHJZ14D4FDJ62,HRB 252581,DE,Siemens Gamesa Renewable Energy Ltd.,,,,Utilities,Siemens Gamesa Renewable Energy Service GmbH,HIGH_ST,,"Pritzwalker Str. 10A, 16909 Wittstock/Dosse, Germany",Germany,,53.1604145,12.4729033,high
194_SIEMENS-ENERGY-AG,Siemens Energy AG,5299005CHJZ14D4FDJ62,HRB 252581,DE,Siemens Gamesa Renewable Energy Ltd.,,,,Utilities,Siemens Gamesa Renewable Energy,INDUSTRIAL,,"Oostkaje, 26757 Borkum, Germany",Germany,,53.5614268,6.7528508,high
195_SIEMENS-ENERGY-AG,Siemens Energy AG,5299005CHJZ14D4FDJ62,HRB 252581,DE,Siemens Gamesa Renewable Energy Ltd.,,,,Utilities,Siemens Gamesa Renewable Energy Service GmbH,INDUSTRIAL,,"Rudolf-Diesel-Straße 19a, 24790 Schacht-Audorf, Germany",Germany,,54.29919,9.71625,high
196_SIEMENS-ENERGY-AG,Siemens Energy AG,5299005CHJZ14D4FDJ62,HRB 252581,DE,Siemens Gamesa Renewable Energy Ltd.,,,,Utilities,Siemens Gamesa Renewable Energy A S,HIGH_ST,,"Neu-Galliner Ring 14-16, 19258 Gallin, Germany",Germany,,53.5112037,10.808957,high
197_SIEMENS-ENERGY-AG,Siemens Energy AG,5299005CHJZ14D4FDJ62,HRB 252581,DE,Siemens Gamesa Renewable Energy Ltd.,,,,Utilities,Siemens Gamesa Renewable Energy ____,HIGH_ST,,"Tokyo Shiodome Building, 14F, 1-ch_me-9-1 Higashishinbashi, Minato City, Tokyo 105-7314, Japan",Japan,,35.663026,139.761236,high
198_SIEMENS-ENERGY-AG,Siemens Energy AG,5299005CHJZ14D4FDJ62,HRB 252581,DE,Siemens Gamesa Renewable Energy Ltd.,,,,Utilities,Siemens Gamesa Renewable Energy Lanka (Pvt) Ltd,OFFICE,,"No 51/1 Kandy - Colombo Rd, _______, Sri Lanka",Sri Lanka,,7.0853103,80.0327008,high
199_SIEMENS-ENERGY-AG,Siemens Energy AG,5299005CHJZ14D4FDJ62,HRB 252581,DE,Siemens Gamesa Renewable Energy Ltd.,,,,Utilities,Siemens Gamesa Renewable Power Pvt Ltd,INDUSTRIAL,,"chezhilanallur, SF. NO. 1231/1232, Tamil Nadu 627352, India",India,,8.9139197,77.7077938,high
200_SIEMENS-ENERGY-AG,Siemens Energy AG,5299005CHJZ14D4FDJ62,HRB 252581,DE,Siemens Gamesa Renewable Energy Ltd.,,,,Utilities,Siemens Gamesa Renewable Energy,INDUSTRIAL,,"Polígono Industrial, Calle e, 2-4, 31170 Orcoyen, Navarra, Spain",Spain,,42.8105316,-1.711415,high
201_SIEMENS-ENERGY-AG,Siemens Energy AG,5299005CHJZ14D4FDJ62,HRB 252581,DE,Siemens Gamesa Renewable Energy Ltd.,,,,Utilities,Siemens Gamesa Renewable Energy,INDUSTRIAL,,"Boulevard de la Corniche, Casablanca 20200, Morocco",Morocco,,33.5974601,-7.6657331,high
202_SIEMENS-ENERGY-AG,Siemens Energy AG,5299005CHJZ14D4FDJ62,HRB 252581,DE,Siemens Gamesa Renewable Energy Ltd.,,,,Utilities,Siemens Gamesa Renewable Energy,HIGH_ST,,"15 Shaw St, Herbert, SK S0H 2A0, Canada",Canada,,50.4236898,-107.2188148,high
203_SIEMENS-ENERGY-AG,Siemens Energy AG,5299005CHJZ14D4FDJ62,HRB 252581,DE,Siemens Gamesa Renewable Energy Ltd.,,,,Utilities,Siemens Gamesa Renewable Energy,INDUSTRIAL,,"Pdte. Riesco 5335, 7550000 Las Condes, Región Metropolitana, Chile",Chile,,-33.4054446,-70.5766403,high
204_SIEMENS-ENERGY-AG,Siemens Energy AG,5299005CHJZ14D4FDJ62,HRB 252581,DE,Siemens Gamesa Renewable Energy Ltd.,,,,Utilities,Siemens Gamesa Renewable Energy Blades S.A. - Oliveira de Frades,INDUSTRIAL,,"Zona Industrial de Oliveira de Frades – Lote 2, 3680-172 Oliveira de Frades, Portugal",Portugal,,40.7149038,-8.2107199,high
205_SIEMENS-ENERGY-AG,Siemens Energy AG,5299005CHJZ14D4FDJ62,HRB 252581,DE,Siemens Gamesa Renewable Energy Ltd.,,,,Utilities,Siemens Gamesa Renewable Energy,INDUSTRIAL,,"Polígono Industrial Valdemies II Calle Diego de, 42100 Ágreda, Soria, Spain",Spain,,41.8462615,-1.9380359,high
206_SIEMENS-ENERGY-AG,Siemens Energy AG,5299005CHJZ14D4FDJ62,HRB 252581,DE,Siemens Gamesa Renewable Energy Ltd.,,,,Utilities,"Siemens Gamesa Renewable Energy Eólica, S.L.",INDUSTRIAL,,"Ctra. Pozaldez, 1, 47400 Medina del Campo, Valladolid, Spain",Spain,,41.318406,-4.9039685,high
207_SIEMENS-ENERGY-AG,Siemens Energy AG,5299005CHJZ14D4FDJ62,HRB 252581,DE,Siemens Gamesa Renewable Energy Ltd.,,,,Utilities,SIEMENS GAMESA RENEWABLE ENERGY 9REN SL,INDUSTRIAL,,"C. Isaac Peral, 11, 29320 Campillos, Málaga, Spain",Spain,,37.0494545,-4.8758573,high
208_SIEMENS-ENERGY-AG,Siemens Energy AG,5299005CHJZ14D4FDJ62,HRB 252581,DE,Siemens Gamesa Renewable Energy Ltd.,,,,Utilities,Siemens Gamesa,INDUSTRIAL,,"Rda. de Narcís Monturiol, 3, 46980 Paterna, Valencia, Spain",Spain,,39.5492511,-0.4645471,high
209_SIEMENS-ENERGY-AG,Siemens Energy AG,5299005CHJZ14D4FDJ62,HRB 252581,DE,Siemens Gamesa Renewable Energy Ltd.,,,,Utilities,Siemens Gamesa Renewable Energy Pty Ltd,HIGH_ST,,"570 Swan St, Burnley VIC 3121, Australia",Australia,,-37.8270861,145.0188604,high
210_SIEMENS-ENERGY-AG,Siemens Energy AG,5299005CHJZ14D4FDJ62,HRB 252581,DE,Siemens Gamesa Renewable Energy Ltd.,,,,Utilities,Siemens Gamesa Renewable Energy Limited (Thailand),OFFICE,,"Siemens Gamesa Renewable Energy Ltd. 2922/325, 33rd Floor, Charn Issara Tower II, _. _______________ Bangkapi, ___________ _____________ 10310, Thailand",Thailand,,13.7433213,100.588065,high
211_SIEMENS-ENERGY-AG,Siemens Energy AG,5299005CHJZ14D4FDJ62,HRB 252581,DE,Siemens Gamesa Renewable Energy Ltd.,,,,Utilities,Siemens Gamesa Renewable Energy Service GmbH,TRANSPORT,,"Bäckerweg 64, 24852 Eggebek, Germany",Germany,,54.6116032,9.3475935,high
212_SIEMENS-ENERGY-AG,Siemens Energy AG,5299005CHJZ14D4FDJ62,HRB 252581,DE,Siemens Gamesa Renewable Energy Ltd.,,,,Utilities,Siemens Gamesa Renewable Energy Service GmbH,INDUSTRIAL,,"Europaallee 7, 28309 Bremen, Germany",Germany,,53.0351898,8.8848143,high
213_SIEMENS-ENERGY-AG,Siemens Energy AG,5299005CHJZ14D4FDJ62,HRB 252581,DE,Siemens Gamesa Renewable Energy Ltd.,,,,Utilities,Siemens Gamesa Renewable Energy Service GmbH,INDUSTRIAL,,"Zöllners Garten 1, 30900 Wedemark, Germany",Germany,,52.5145245,9.73331,high
214_SIEMENS-ENERGY-AG,Siemens Energy AG,5299005CHJZ14D4FDJ62,HRB 252581,DE,Siemens Gamesa Renewable Energy Ltd.,,,,Utilities,Siemens Gamesa Renewable Energy Blades,INDUSTRIAL,,"Unnamed Road, La Ville Nouvelle Cherafate, Tanger 90060, Morocco",Morocco,,35.7594651,-5.8339543,high
215_SIEMENS-ENERGY-AG,Siemens Energy AG,5299005CHJZ14D4FDJ62,HRB 252581,DE,"PRO INTEGRIS d.o.o., Split/ Croatia",,,,Technology Hardware & Equipment,Pro Integris d.o.o.,SINGLE_RES,,"Ul. Josipa Jovi_a 7, 21000, Split, Croatia",Croatia,,43.5151639,16.4831213,high
216_SIEMENS-ENERGY-AG,Siemens Energy AG,5299005CHJZ14D4FDJ62,HRB 252581,DE,"PRO INTEGRIS d.o.o., Split/ Croatia",,,,Technology Hardware & Equipment,Pro Integris Ltd.,OFFICE,,"Av. Ve_eslava Holjevca 40, 10000, Zagreb, Croatia",Croatia,,45.763208,15.980091,high
217_SIEMENS-ENERGY-AG,Siemens Energy AG,5299005CHJZ14D4FDJ62,HRB 252581,DE,"PRO INTEGRIS d.o.o., Split/ Croatia",,,,Technology Hardware & Equipment,Pro Integris,SINGLE_RES,,"Lova_ki put 7, 21000, Split, Croatia",Croatia,,43.5128644,16.4850876,high
218_SIEMENS-ENERGY-AG,Siemens Energy AG,5299005CHJZ14D4FDJ62,HRB 252581,DE,"Gamesa Electric, S.A. Unipersonal, Zamudio/ Spain",,,,Capital Goods,Gamesa Información Accionista,TRANSPORT,,"Polígono Industrial Teknologi Elkartegia, 0 S N, 48170 Arteaga, Vizcaya, Spain",Spain,,43.28079,-2.86332,medium
219_SIEMENS-ENERGY-AG,Siemens Energy AG,5299005CHJZ14D4FDJ62,HRB 252581,DE,PT Siemens Energy Indonesia,52990058WH1BJKGB9Z15,1.01E+12,ID,Energy,Siemens Energy Indonesia CSC Cilegon,INDUSTRIAL,,"2229+84P, Jl. Eropa II Jl. Kawasan Industri Krakatau Steel, Kotasari, Kec. Gerogol, Kota Cilegon, Banten 42443, Indonesia",Indonesia,IDN,-5.9991673,106.0178131,high
220_SIEMENS-ENERGY-AG,Siemens Energy AG,5299005CHJZ14D4FDJ62,HRB 252581,DE,Siemens Energy Global GmbH & Co. KG,529900F0AEX3776C0J76,111200,DE,Utilities,Siemens Energy Global GmbH & Co. KG,OFFICE,,"Philipsbornstra√üe 2, 30165 Hannover, Germany",Germany,DEU,52.3879587,9.7333639,high
221_SIEMENS-ENERGY-AG,Siemens Energy AG,5299005CHJZ14D4FDJ62,HRB 252581,DE,Siemens Energy Global GmbH & Co. KG,529900F0AEX3776C0J76,111200,DE,Utilities,Siemens Energy Global GmbH & Co. KG,INDUSTRIAL,,"Lutherstra√üe 51, 02826 G√∂rlitz, Germany",Germany,DEU,51.1467461,14.9708557,high
222_SIEMENS-ENERGY-AG,Siemens Energy AG,5299005CHJZ14D4FDJ62,HRB 252581,DE,Siemens Energy Global GmbH & Co. KG,529900F0AEX3776C0J76,111200,DE,Utilities,Siemens Technopark M√ºlheim GmbH & Co. KG,OFFICE,,"Mellinghofer Str. 55, 45473 M√ºlheim an der Ruhr, Germany",Germany,DEU,51.4418385,6.8808479,medium
223_SIEMENS-ENERGY-AG,Siemens Energy AG,5299005CHJZ14D4FDJ62,HRB 252581,DE,Siemens Energy Global GmbH & Co. KG,529900F0AEX3776C0J76,111200,DE,Utilities,Siemens Energy Global GmbH & Co. KG,HIGH_ST,,"Werner-von-Siemens-Stra√üe 1, 99086 Erfurt, Germany",Germany,DEU,51.0073531,11.0276381,high
224_SIEMENS-ENERGY-AG,Siemens Energy AG,5299005CHJZ14D4FDJ62,HRB 252581,DE,Siemens Energy Global GmbH & Co. KG,529900F0AEX3776C0J76,111200,DE,Utilities,Siemens Energy Global GmbH & Co. KG Stuttgart,OFFICE,,"Schwieberdinger Str. 95-99, 70435 Stuttgart, Germany",Germany,DEU,48.8325585,9.1560544,high
225_SIEMENS-ENERGY-AG,Siemens Energy AG,5299005CHJZ14D4FDJ62,HRB 252581,DE,Siemens Energy Global GmbH & Co. KG,529900F0AEX3776C0J76,111200,DE,Utilities,Siemens Energy Global GmbH & Co. KG,INDUSTRIAL,,"Overbeckstra√üe 44, 01139 Dresden, Germany",Germany,DEU,51.0749416,13.6894697,high
226_SIEMENS-ENERGY-AG,Siemens Energy AG,5299005CHJZ14D4FDJ62,HRB 252581,DE,Siemens Energy Global GmbH & Co. KG,529900F0AEX3776C0J76,111200,DE,Utilities,Siemens Energy Global GmbH & Co KG,WAREHOUSE,,"Rittigfeld 1, 91301 Forchheim, Germany",Germany,DEU,49.6878892,11.0594565,high
227_SIEMENS-ENERGY-AG,Siemens Energy AG,5299005CHJZ14D4FDJ62,HRB 252581,DE,Siemens Energy Global GmbH & Co. KG,529900F0AEX3776C0J76,111200,DE,Utilities,Siemens Gas and Power GmbH & Co. KG,OFFICE,,"Freyeslebenstra√üe 1, 91058 Erlangen, Germany",Germany,DEU,49.5742757,11.0137806,medium
228_SIEMENS-ENERGY-AG,Siemens Energy AG,5299005CHJZ14D4FDJ62,HRB 252581,DE,Siemens Energy Global GmbH & Co. KG,529900F0AEX3776C0J76,111200,DE,Utilities,Siemens AG Energy Sector,INDUSTRIAL,,"Huttenstra√üe 12, 10553 Berlin, Germany",Germany,DEU,52.5280681,13.3240915,high
229_SIEMENS-ENERGY-AG,Siemens Energy AG,5299005CHJZ14D4FDJ62,HRB 252581,DE,Siemens Energy Global GmbH & Co. KG,529900F0AEX3776C0J76,111200,DE,Utilities,Siemens Gas and Power GmbH & Co. KG - Manufacturing Center of Excellence,OFFICE,,"Campus-Boulevard 79, 52074 Aachen, Germany",Germany,DEU,50.7862469,6.0434093,high
230_SIEMENS-ENERGY-AG,Siemens Energy AG,5299005CHJZ14D4FDJ62,HRB 252581,DE,Siemens Energy Global GmbH & Co. KG,529900F0AEX3776C0J76,111200,DE,Utilities,Siemens Energy Global GmbH & Co. KG,OFFICE,,"Wolfgang Reuter Platz 2, 47053 Duisburg, Germany",Germany,DEU,51.4269218,6.749901,high
231_SIEMENS-ENERGY-AG,Siemens Energy AG,5299005CHJZ14D4FDJ62,HRB 252581,DE,Siemens Energy Global GmbH & Co. KG,529900F0AEX3776C0J76,111200,DE,Utilities,Siemens Energy Global GmbH & Co.KG,OFFICE,,"Katzwanger Str. 150, 90461 N√ºrnberg, Germany",Germany,DEU,49.4232067,11.0847123,high
232_SIEMENS-ENERGY-AG,Siemens Energy AG,5299005CHJZ14D4FDJ62,HRB 252581,DE,Siemens Energy Global GmbH & Co. KG,529900F0AEX3776C0J76,111200,DE,Utilities,Siemens Energy Global GmbH & Co. KG,HIGH_ST,,"Hahnstra√üe 43e, 60528 Frankfurt am Main, Germany",Germany,DEU,50.0814121,8.6361022,high
233_SIEMENS-ENERGY-AG,Siemens Energy AG,5299005CHJZ14D4FDJ62,HRB 252581,DE,Siemens Energy Global GmbH & Co. KG,529900F0AEX3776C0J76,111200,DE,Utilities,Siemens Energy Global GmbH & Co. KG Karlsruhe,OFFICE,,"Siemensallee 84, 76187 Karlsruhe, Germany",Germany,DEU,49.0279088,8.3510361,high
234_SIEMENS-ENERGY-AG,Siemens Energy AG,5299005CHJZ14D4FDJ62,HRB 252581,DE,Siemens Energy Global GmbH & Co. KG,529900F0AEX3776C0J76,111200,DE,Utilities,Siemens Energy Global GmbH & Co. KG Mannheim,OFFICE,,"Gl√ºcksteinallee 25, 68163 Mannheim, Germany",Germany,DEU,49.4764399,8.47128,high
235_SIEMENS-ENERGY-AG,Siemens Energy AG,5299005CHJZ14D4FDJ62,HRB 252581,DE,Siemens Energy Global GmbH & Co. KG,529900F0AEX3776C0J76,111200,DE,Utilities,Siemens Energy Global GmbH & Co. KG Vertriebs- und Servicest√ºtzpunkt,INDUSTRIAL,,"Hohenpfortenweg 7, 49808 Lingen (Ems), Germany",Germany,DEU,52.5548265,7.3219051,medium
236_SIEMENS-ENERGY-AG,Siemens Energy AG,5299005CHJZ14D4FDJ62,HRB 252581,DE,Siemens Energy Global GmbH & Co. KG,529900F0AEX3776C0J76,111200,DE,Utilities,Siemens Energy Global GmbH & Co. KG,OFFICE,,"Rheinstra√üe 100, 45478 M√ºlheim an der Ruhr, Germany",Germany,DEU,51.4380206,6.8487204,high
237_SIEMENS-ENERGY-AG,Siemens Energy AG,5299005CHJZ14D4FDJ62,HRB 252581,DE,Siemens Energy Global GmbH & Co. KG,529900F0AEX3776C0J76,111200,DE,Utilities,Siemens Energy Global GmbH & Co. KG Saarbr√ºcken,INDUSTRIAL,,"Innovationsring 9, 66115 Saarbr√ºcken, Germany",Germany,DEU,49.2461485,6.9338612,high
238_SIEMENS-ENERGY-AG,Siemens Energy AG,5299005CHJZ14D4FDJ62,HRB 252581,DE,Siemens Energy Global GmbH & Co. KG,529900F0AEX3776C0J76,111200,DE,Utilities,Siemens Energy Global GmbH & Co. KG,OFFICE,,"Lindenpl. 2, 20099 Hamburg, Germany",Germany,DEU,53.5531075,10.0196022,high
239_SIEMENS-ENERGY-AG,Siemens Energy AG,5299005CHJZ14D4FDJ62,HRB 252581,DE,Siemens Energy Global GmbH & Co. KG,529900F0AEX3776C0J76,111200,DE,Utilities,Siemens Energy Global GmbH & Co. KG,HIGH_ST,,"Zum R√∂thepfuhl 1a, 14974 Ludwigsfelde, Germany",Germany,DEU,52.2994649,13.2798714,high
240_SIEMENS-ENERGY-AG,Siemens Energy AG,5299005CHJZ14D4FDJ62,HRB 252581,DE,SIEMENS ENERGY INDIA LIMITED,335800AEZO3CVXCSA716,U28110MH2024PLC418770,IN,Energy,Siemens Energy India Limited (Leh Office),OFFICE,,"4HWJ+9MR, near sbi atm, opp. EJM Degree college, Housing colony, Leh, 194101",India,IND,34.1465342,77.5820636,high
241_SIEMENS-ENERGY-AG,Siemens Energy AG,5299005CHJZ14D4FDJ62,HRB 252581,DE,SIEMENS ENERGY INDIA LIMITED,335800AEZO3CVXCSA716,U28110MH2024PLC418770,IN,Energy,Siemens Energy India Ltd (SPEL),OFFICE,,"20, Delhi - Jaipur Expy, Sector 18, Gurugram, Sarhol, Haryana 122008, India",India,IND,28.4859427,77.0749702,high
242_SIEMENS-ENERGY-AG,Siemens Energy AG,5299005CHJZ14D4FDJ62,HRB 252581,DE,SIEMENS ENERGY INDIA LIMITED,335800AEZO3CVXCSA716,U28110MH2024PLC418770,IN,Energy,Siemens,INDUSTRIAL,,"Railway Station, opp. Makar Pura, Maneja, Vadodara, Gujarat 390013, India",India,IND,22.235579,73.178035,high
243_SIEMENS-ENERGY-AG,Siemens Energy AG,5299005CHJZ14D4FDJ62,HRB 252581,DE,SIEMENS ENERGY L.L.C.,5299009RS6MT2WAZJT04,LICENSE NO. CN-1038775,AE,Energy,Masdar City- Siemens Building,OFFICE,,"Unit No B-05, Masdar City PO Box 47015,  Abu Dhabi, UAE",United Arab Emirates,ARE,24.4266734,54.614979,high
244_SIEMENS-ENERGY-AG,Siemens Energy AG,5299005CHJZ14D4FDJ62,HRB 252581,DE,SIEMENS ENERGY L.L.C.,5299009RS6MT2WAZJT04,LICENSE NO. CN-1038775,AE,Energy,Siemens Industrial LLC,OFFICE,,"Level 3, Building Parcel A 4 Al Wasl, Mobility District , EXPO City Dubai P. O. Box : 116338, Dubai, UAE",United Arab Emirates,ARE,25.1327976,55.1987127,high
245_SIEMENS-ENERGY-AG,Siemens Energy AG,5299005CHJZ14D4FDJ62,HRB 252581,DE,SIEMENS ENERGY LIMITED,529900Z35GI05WN6W259,659600,IE,Utilities,Siemens Energy Italy,OFFICE,,"Via Vipiteno 4 20128, Milan (MI)",Italy,ITA,45.5112134,9.2359923,high
246_SIEMENS-ENERGY-AG,Siemens Energy AG,5299005CHJZ14D4FDJ62,HRB 252581,DE,SIEMENS ENERGY LIMITED,529900Z35GI05WN6W259,659600,IE,Utilities,Siemens Energy Oy,OFFICE,,Lietuvos filialas J. Jasinskio 16c LT-03163 Vilnius Lithuania,Lithuania,LTU,54.6861543,25.2605765,high
247_SIEMENS-ENERGY-AG,Siemens Energy AG,5299005CHJZ14D4FDJ62,HRB 252581,DE,SIEMENS ENERGY LIMITED,529900Z35GI05WN6W259,659600,IE,Utilities,Siemens Energy Poland,ENERGY,,Zupnicza 11 03-821 Warsaw,Poland,POL,52.251333,21.059809,high
248_SIEMENS-ENERGY-AG,Siemens Energy AG,5299005CHJZ14D4FDJ62,HRB 252581,DE,SIEMENS ENERGY LIMITED,529900Z35GI05WN6W259,659600,IE,Utilities,Siemens Energy,OFFICE,,"Unipessoal Lda Rua Irm√£os Siemens, n.1 2720-093 Amadora Portugal",Portugal,PRT,38.7372405,-9.2291159,high
249_SIEMENS-ENERGY-AG,Siemens Energy AG,5299005CHJZ14D4FDJ62,HRB 252581,DE,SIEMENS ENERGY LIMITED,529900Z35GI05WN6W259,659600,IE,Utilities,Siemens Energy d.o.o. Belgrade,OFFICE,,"Street and house number: Tadije Sondermajera 11 (Airport City), 8th floor  Postal code: 11070",Serbia,SRB,44.8139152,20.395692,high
250_SIEMENS-ENERGY-AG,Siemens Energy AG,5299005CHJZ14D4FDJ62,HRB 252581,DE,SIEMENS ENERGY LIMITED,529900Z35GI05WN6W259,659600,IE,Utilities,"Siemens Energy, s.r.o.",OFFICE,,Lamaƒçsk√° cesta 3/A   841 04 Bratislava,Slovakia,SVK,48.1701278,17.0732999,high
251_SIEMENS-ENERGY-AG,Siemens Energy AG,5299005CHJZ14D4FDJ62,HRB 252581,DE,SIEMENS ENERGY LIMITED,529900Z35GI05WN6W259,659600,IE,Utilities,Siemens Energy Spain,ENERGY,,"Ronda de Europa, 5 28760 Tres Cantos, Madrid",Spain,ESP,40.5989876,-3.7179328,high
252_SIEMENS-ENERGY-AG,Siemens Energy AG,5299005CHJZ14D4FDJ62,HRB 252581,DE,SIEMENS ENERGY LIMITED,529900Z35GI05WN6W259,659600,IE,Utilities,Siemens Energy Sweden,OFFICE,,Slottsv√§gen 2-6 612 83 Finsp√•ng,Sweden,SWE,58.7105359,15.7772395,high
253_SIEMENS-ENERGY-AG,Siemens Energy AG,5299005CHJZ14D4FDJ62,HRB 252581,DE,SIEMENS ENERGY LIMITED,529900Z35GI05WN6W259,659600,IE,Utilities,Siemens Energy Bangladesh Ltd.,OFFICE,,"Laila Tower, 8 Bir Uttam Mir Shawkat Sarak, Dhaka 1212, Bangladesh",Bangladesh,BGD,23.7771817,90.4160895,high
254_SIEMENS-ENERGY-AG,Siemens Energy AG,5299005CHJZ14D4FDJ62,HRB 252581,DE,SIEMENS ENERGY LIMITED,529900Z35GI05WN6W259,659600,IE,Utilities,"Siemens Energy, CAP Works",OFFICE,,"Shields Road Newcastle, NE6 2YL",United Kingdom,GBR,54.982681,-1.5664241,high
255_SIEMENS-ENERGY-AG,Siemens Energy AG,5299005CHJZ14D4FDJ62,HRB 252581,DE,SIEMENS ENERGY LIMITED,529900Z35GI05WN6W259,659600,IE,Utilities,Siemens Energy Abu Dhabi,OFFICE,,"Siemens Energy Building Unit No B-05, Masdar City PO Box 47015, Abu Dhabi, UAE",United Arab Emirates,ARE,24.4342447,54.6169505,high
256_SIEMENS-ENERGY-AG,Siemens Energy AG,5299005CHJZ14D4FDJ62,HRB 252581,DE,SIEMENS ENERGY LIMITED,529900Z35GI05WN6W259,659600,IE,Utilities,Siemens Energy,OFFICE,,"Expo City Dubai Building 13, Sidr Quarter A, Sustainability District PO Box 2154 Dubai, UAE",United Arab Emirates,ARE,24.9603149,55.1537607,high
257_SIEMENS-ENERGY-AG,Siemens Energy AG,5299005CHJZ14D4FDJ62,HRB 252581,DE,SIEMENS ENERGY LIMITED,529900Z35GI05WN6W259,659600,IE,Utilities,Siemens Energy Kuwait,OFFICE,,"Ardiya Industrial. Block 2, Main street Plot 84 PO Box 13050 Farwaniya",Kuwait,KWT,29.2947115,47.9094547,high
258_SIEMENS-ENERGY-AG,Siemens Energy AG,5299005CHJZ14D4FDJ62,HRB 252581,DE,SIEMENS ENERGY LIMITED,529900Z35GI05WN6W259,659600,IE,Utilities,Siemens Energy Saudi Arabia,MANUFACTURING,,Dammam 2nd Industrial City Street # 152 Building 6685 Dammam 34331,Saudi Arabia,SAU,26.2726303,49.9495068,high
259_SIEMENS-ENERGY-AG,Siemens Energy AG,5299005CHJZ14D4FDJ62,HRB 252581,DE,SIEMENS ENERGY LIMITED,529900Z35GI05WN6W259,659600,IE,Utilities,Siemens Energy¬†LLC,OFFICE,,"PC 130, Al Athaiba PO Box 1206 Sultanate of Oman",Oman,OMN,23.5864956,58.3674118,high
260_SIEMENS-ENERGY-AG,Siemens Energy AG,5299005CHJZ14D4FDJ62,HRB 252581,DE,SIEMENS ENERGY LIMITED,529900Z35GI05WN6W259,659600,IE,Utilities,Siemens Energy Qatar,OFFICE,,Jaidah Square. Al Matar Street. PO Box 21757 Doha,Qatar,QAT,25.2854473,51.5310398,high
261_SIEMENS-ENERGY-AG,Siemens Energy AG,5299005CHJZ14D4FDJ62,HRB 252581,DE,SIEMENS ENERGY LIMITED,529900Z35GI05WN6W259,659600,IE,Utilities,Siemens Energy S.A.¬†Argentina¬†,OFFICE,,"Blas Parera 3553 B1636CSE Olivos, Provincia de Buenos Aires",Argentina,ARG,-34.514768,-58.5180785,high
262_SIEMENS-ENERGY-AG,Siemens Energy AG,5299005CHJZ14D4FDJ62,HRB 252581,DE,SIEMENS ENERGY LIMITED,529900Z35GI05WN6W259,659600,IE,Utilities,Siemens Energy Brasil,OFFICE,,"Building 12 - Av. Eng. Jo√£o Fernandes Gimenes Molina, 1745 - 2nd floor - Industrial District Jundia√≠ - SP, 13213-080",Brazil,BRA,-23.1474412,-46.9387636,high
263_SIEMENS-ENERGY-AG,Siemens Energy AG,5299005CHJZ14D4FDJ62,HRB 252581,DE,SIEMENS ENERGY LIMITED,529900Z35GI05WN6W259,659600,IE,Utilities,Siemens Energy SpA Chile,OFFICE,,"Vista 360 Building - 5th Floor Alonso De Cordoba Avenue N. 4.580 Las Condes, Santiago",Chile,CHL,-33.4045055,-70.5837807,high
264_SIEMENS-ENERGY-AG,Siemens Energy AG,5299005CHJZ14D4FDJ62,HRB 252581,DE,SIEMENS ENERGY LIMITED,529900Z35GI05WN6W259,659600,IE,Utilities,Siemens Subsea Ltd,INDUSTRIAL,,"Abbotswell Rd, West Tullos Industrial Estate, Aberdeen AB12 3AD, UK",United Kingdom,GBR,57.1269846,-2.0948014,high
265_SIEMENS-ENERGY-AG,Siemens Energy AG,5299005CHJZ14D4FDJ62,HRB 252581,DE,SIEMENS ENERGY LIMITED,529900Z35GI05WN6W259,659600,IE,Utilities,Siemens Energy S.A.S Colombia,OFFICE,,Tenjo Cundinamarca en la autopista Medell√≠n Km. 8.5 Costado Sur,Colombia,COL,6.2476376,-75.5658153,high
266_SIEMENS-ENERGY-AG,Siemens Energy AG,5299005CHJZ14D4FDJ62,HRB 252581,DE,SIEMENS ENERGY LIMITED,529900Z35GI05WN6W259,659600,IE,Utilities,Torre Antara II,OFFICE,,"Blvd. Miguel de Cervantes Saavedra # 224 piso 8 Col. Granada C.P. 11520, Miguel Hidalgo. Ciudad de M√©xico",Mexico,MEX,19.4394373,-99.2019105,high
267_SIEMENS-ENERGY-AG,Siemens Energy AG,5299005CHJZ14D4FDJ62,HRB 252581,DE,SIEMENS ENERGY LIMITED,529900Z35GI05WN6W259,659600,IE,Utilities,Siemens Energy S.A.C. Per√∫,OFFICE,,Avenida Domingo Oru√© 971 Lima 15047,Peru,PER,-12.1057408,-77.0203724,high
268_SIEMENS-ENERGY-AG,Siemens Energy AG,5299005CHJZ14D4FDJ62,HRB 252581,DE,SIEMENS ENERGY LIMITED,529900Z35GI05WN6W259,659600,IE,Utilities,Siemens Uruguay S.A. Uruguay,OFFICE,,Ciudad de Guayaquil 1306 11400 Montevideo,Uruguay,URY,-34.8964527,-56.0768163,high
269_SIEMENS-ENERGY-AG,Siemens Energy AG,5299005CHJZ14D4FDJ62,HRB 252581,DE,SIEMENS ENERGY LIMITED,529900Z35GI05WN6W259,659600,IE,Utilities,Siemens Energy Canada,OFFICE,,"1577 North Service Rd E, Oakville, ON L6H 1A7, Canada",Canada,CAN,43.4879334,-79.6749826,high
270_SIEMENS-ENERGY-AG,Siemens Energy AG,5299005CHJZ14D4FDJ62,HRB 252581,DE,SIEMENS ENERGY LIMITED,529900Z35GI05WN6W259,659600,IE,Utilities,Siemens Energy,OFFICE,,"4400 N Alafaya Trail, Orlando, FL 32826, United States",United States,USA,28.6034939,-81.2110778,high
271_SIEMENS-ENERGY-AG,Siemens Energy AG,5299005CHJZ14D4FDJ62,HRB 252581,DE,SIEMENS ENERGY LIMITED,529900Z35GI05WN6W259,659600,IE,Utilities,Siemens Energy Cheongju Site office,OFFICE,,"35-5 Oebuk-dong, Heungdeok-gu, Cheongju, Chungcheongbuk-do, South Korea",South Korea,KOR,36.659035,127.4315508,medium
272_SIEMENS-ENERGY-AG,Siemens Energy AG,5299005CHJZ14D4FDJ62,HRB 252581,DE,SIEMENS ENERGY LIMITED,529900Z35GI05WN6W259,659600,IE,Utilities,Siemens Energy Subsea Connectors,INDUSTRIAL,,"Kirkton Drive Pitmedden Industrial Estate, Dyce, Aberdeen AB21 0BG, UK",United Kingdom,GBR,57.2117006,-2.2007114,medium
273_SIEMENS-ENERGY-AG,Siemens Energy AG,5299005CHJZ14D4FDJ62,HRB 252581,DE,SIEMENS ENERGY LIMITED,529900Z35GI05WN6W259,659600,IE,Utilities,Siemens Gamesa Renewable Energy,OFFICE,,"Anderston House, 389 Argyle St, Glasgow G2 8LR, UK",United Kingdom,GBR,55.8586844,-4.264645,medium
274_SIEMENS-ENERGY-AG,Siemens Energy AG,5299005CHJZ14D4FDJ62,HRB 252581,DE,SIEMENS ENERGY LIMITED,529900Z35GI05WN6W259,659600,IE,Utilities,Siemens Gamesa Renewable Energy,WAREHOUSE,,"1 Brewster Square, Brucefield Industrial Estate, Livingston EH54 9BJ, UK",United Kingdom,GBR,55.866753,-3.531879,medium
275_SIEMENS-ENERGY-AG,Siemens Energy AG,5299005CHJZ14D4FDJ62,HRB 252581,DE,SIEMENS ENERGY LIMITED,529900Z35GI05WN6W259,659600,IE,Utilities,SIEMENS ENERGY INDUSTRIAL TURBOMACHINERY INDIA PRIVATE LIMITED,OFFICE,,"Plot No 78, JIL Building, Tower B, Sector 18, Gurugram, Haryana 122015, India",India,IND,28.4837342,77.0667898,medium
276_SIEMENS-ENERGY-AG,Siemens Energy AG,5299005CHJZ14D4FDJ62,HRB 252581,DE,SIEMENS ENERGY LIMITED,529900Z35GI05WN6W259,659600,IE,Utilities,Siemens Energy Global GmbH & Co. KG Vertriebs- und Servicest√ºtzpunkt,INDUSTRIAL,,"Hohenpfortenweg 7, 49808 Lingen (Ems), Germany",Germany,DEU,52.5548265,7.3219051,medium
277_SIEMENS-ENERGY-AG,Siemens Energy AG,5299005CHJZ14D4FDJ62,HRB 252581,DE,SIEMENS ENERGY LIMITED,529900Z35GI05WN6W259,659600,IE,Utilities,Siemens Energy Global GmbH & Co. KG,OFFICE,,"Hahnstra√üe 43e, 60528 Frankfurt am Main, Germany",Germany,DEU,50.0814121,8.6361022,high
278_SIEMENS-ENERGY-AG,Siemens Energy AG,5299005CHJZ14D4FDJ62,HRB 252581,DE,SIEMENS ENERGY LIMITED,529900Z35GI05WN6W259,659600,IE,Utilities,Siemens Energy Global GmbH & Co. KG,MANUFACTURING,,"Overbeckstra√üe 44, 01139 Dresden, Germany",Germany,DEU,51.0749416,13.6894697,high
279_SIEMENS-ENERGY-AG,Siemens Energy AG,5299005CHJZ14D4FDJ62,HRB 252581,DE,SIEMENS ENERGY LIMITED,529900Z35GI05WN6W259,659600,IE,Utilities,Siemens Energy,OFFICE,,"Innovation House, Temple Point, Bullerthorpe Ln, Colton, Leeds LS15 9JL, UK",United Kingdom,GBR,53.7913654,-1.4286073,high
280_SIEMENS-ENERGY-AG,Siemens Energy AG,5299005CHJZ14D4FDJ62,HRB 252581,DE,SIEMENS ENERGY LIMITED,529900Z35GI05WN6W259,659600,IE,Utilities,Siemens Energy KZN,OFFICE,,"Unit 4A Romead Business Park, Malone Rd, Maxmead, Pinetown, 3610, South Africa",South Africa,ZAF,-29.8044924,30.8396613,high
281_SIEMENS-ENERGY-AG,Siemens Energy AG,5299005CHJZ14D4FDJ62,HRB 252581,DE,SIEMENS ENERGY LIMITED,529900Z35GI05WN6W259,659600,IE,Utilities,Siemens Energy,INDUSTRIAL,,"Sickingenstra√üe 69, 10553 Berlin, Germany",Germany,DEU,52.5317549,13.3232621,high
282_SIEMENS-ENERGY-AG,Siemens Energy AG,5299005CHJZ14D4FDJ62,HRB 252581,DE,SIEMENS ENERGY LIMITED,529900Z35GI05WN6W259,659600,IE,Utilities,Siemens Energy AS,OFFICE,,"Kanalveien 7, 5068 Bergen, Norway",Norway,NOR,60.3695487,5.341742,high
283_SIEMENS-ENERGY-AG,Siemens Energy AG,5299005CHJZ14D4FDJ62,HRB 252581,DE,SIEMENS ENERGY LIMITED,529900Z35GI05WN6W259,659600,IE,Utilities,"Siemens Energy, s.r.o.",OFFICE,,"Siemensova 4, 155 00 Praha 13, Czechia",Czech Republic,CZE,50.0473086,14.3061504,high
284_SIEMENS-ENERGY-AG,Siemens Energy AG,5299005CHJZ14D4FDJ62,HRB 252581,DE,SIEMENS ENERGY LIMITED,529900Z35GI05WN6W259,659600,IE,Utilities,Siemens Energy B.V. (Hoogspanning),INDUSTRIAL,,"Siliciumweg 99, 3812 SW Amersfoort, Netherlands",Netherlands,NLD,52.1640033,5.3486921,high
285_SIEMENS-ENERGY-AG,Siemens Energy AG,5299005CHJZ14D4FDJ62,HRB 252581,DE,SIEMENS ENERGY LIMITED,529900Z35GI05WN6W259,659600,IE,Utilities,Siemens Energy AG - Nonnendamm,MANUFACTURING,,"Nonnendamm 43-57, 13627 Berlin, Germany",Germany,DEU,52.5316579,13.2793311,high
286_SIEMENS-ENERGY-AG,Siemens Energy AG,5299005CHJZ14D4FDJ62,HRB 252581,DE,SIEMENS ENERGY LIMITED,529900Z35GI05WN6W259,659600,IE,Utilities,Siemens AG Energy Sector,MANUFACTURING,,"Huttenstra√üe 12, 10553 Berlin, Germany",Germany,DEU,52.5280681,13.3240915,high
287_SIEMENS-ENERGY-AG,Siemens Energy AG,5299005CHJZ14D4FDJ62,HRB 252581,DE,SIEMENS ENERGY LIMITED,529900Z35GI05WN6W259,659600,IE,Utilities,Siemens-Energy Industrial Turbo machinery limited,MANUFACTURING,,"1 Waterside S, Lincoln LN5 7EU, UK",United Kingdom,GBR,53.2262132,-0.5358363,medium
288_SIEMENS-ENERGY-AG,Siemens Energy AG,5299005CHJZ14D4FDJ62,HRB 252581,DE,SIEMENS ENERGY LIMITED,529900Z35GI05WN6W259,659600,IE,Utilities,SIEMENS ENERGY PTY LTD,HIGH_ST,,"1st floor, Kimbiji House, 344 Ghuba Rd, Dar es Salaam 23197, Tanzania",Tanzania,TZA,-6.7680617,39.2812239,high
289_SIEMENS-ENERGY-AG,Siemens Energy AG,5299005CHJZ14D4FDJ62,HRB 252581,DE,SIEMENS ENERGY LIMITED,529900Z35GI05WN6W259,659600,IE,Utilities,Siemens Gamesa Renewable Energy,HIGH_ST,,"5 Willowbank Rd, Milbrook, Larne BT40 2SF, UK",United Kingdom,GBR,54.8433527,-5.8580221,medium
290_SIEMENS-ENERGY-AG,Siemens Energy AG,5299005CHJZ14D4FDJ62,HRB 252581,DE,SIEMENS ENERGY LIMITED,529900Z35GI05WN6W259,659600,IE,Utilities,Siemens Energy Ltd - Port Harcourt,OFFICE,,"18481 Trans-Amadi Industrial Layout Rd, Trans Amadi, Port Harcourt 500102, Rivers, Nigeria",Nigeria,NGA,4.8204916,7.0391075,high
291_SIEMENS-ENERGY-AG,Siemens Energy AG,5299005CHJZ14D4FDJ62,HRB 252581,DE,SIEMENS ENERGY LIMITED,529900Z35GI05WN6W259,659600,IE,Utilities,Siemens Energy Global GmbH & Co. KG Stuttgart,OFFICE,,"Schwieberdinger Str. 95-99, 70435 Stuttgart, Germany",Germany,DEU,48.8325585,9.1560544,medium
292_SIEMENS-ENERGY-AG,Siemens Energy AG,5299005CHJZ14D4FDJ62,HRB 252581,DE,SIEMENS ENERGY LIMITED,529900Z35GI05WN6W259,659600,IE,Utilities,Siemens Energy Global GmbH & Co. KG,MANUFACTURING,,"Wolfgang-Reuter-Platz 2, 47053 Duisburg, Germany",Germany,DEU,51.4278,6.74775,high
293_SIEMENS-ENERGY-AG,Siemens Energy AG,5299005CHJZ14D4FDJ62,HRB 252581,DE,SIEMENS ENERGY LIMITED,529900Z35GI05WN6W259,659600,IE,Utilities,Siemens Energy,INDUSTRIAL,,"Rheinstra√üe 100, 45478 M√ºlheim an der Ruhr, Germany",Germany,DEU,51.4380206,6.8487204,high
294_SIEMENS-ENERGY-AG,Siemens Energy AG,5299005CHJZ14D4FDJ62,HRB 252581,DE,SIEMENS ENERGY LIMITED,529900Z35GI05WN6W259,659600,IE,Utilities,Siemens Technopark M√ºlheim GmbH & Co. KG,INDUSTRIAL,,"Mellinghofer Str. 55, 45473 M√ºlheim an der Ruhr, Germany",Germany,DEU,51.4418385,6.8808479,medium
295_SIEMENS-ENERGY-AG,Siemens Energy AG,5299005CHJZ14D4FDJ62,HRB 252581,DE,SIEMENS ENERGY LIMITED,529900Z35GI05WN6W259,659600,IE,Utilities,Siemens Energy,OFFICE,,"Zinkh√ºttenstra√üe 45, 45473 M√ºlheim an der Ruhr, Germany",Germany,DEU,51.4379122,6.8789363,high
296_SIEMENS-ENERGY-AG,Siemens Energy AG,5299005CHJZ14D4FDJ62,HRB 252581,DE,SIEMENS ENERGY LIMITED,529900Z35GI05WN6W259,659600,IE,Utilities,Siemens Energy Global GmbH & Co. KG,MANUFACTURING,,"Philipsbornstra√üe 2, 30165 Hannover, Germany",Germany,DEU,52.3879587,9.7333639,high
297_SIEMENS-ENERGY-AG,Siemens Energy AG,5299005CHJZ14D4FDJ62,HRB 252581,DE,SIEMENS ENERGY LIMITED,529900Z35GI05WN6W259,659600,IE,Utilities,Siemens Energy,OFFICE,,"Level 5, Tower 7, Wing A, Magarpatta Inner Circle, Cybercity, Magarpatta, Hadapsar, Pune, Maharashtra 411028, India",India,IND,18.51587,73.9241386,high
298_SIEMENS-ENERGY-AG,Siemens Energy AG,5299005CHJZ14D4FDJ62,HRB 252581,DE,SIEMENS ENERGY LIMITED,529900Z35GI05WN6W259,659600,IE,Utilities,Siemens Energy Wadeville,MANUFACTURING,,"Shad Road &, Galjoen Rd, Wadeville, Germiston, 1422, South Africa",South Africa,ZAF,-26.269905,28.1915016,high
299_SIEMENS-ENERGY-AG,Siemens Energy AG,5299005CHJZ14D4FDJ62,HRB 252581,DE,SIEMENS ENERGY LIMITED,529900Z35GI05WN6W259,659600,IE,Utilities,SIEMENS Energy,INDUSTRIAL,,"1021 Clinton Industrial Park Rd, Clinton, MS 39056, USA",United States,USA,32.3545635,-90.3457041,high
300_SIEMENS-ENERGY-AG,Siemens Energy AG,5299005CHJZ14D4FDJ62,HRB 252581,DE,SIEMENS ENERGY LIMITED,529900Z35GI05WN6W259,659600,IE,Utilities,Siemens Energy,INDUSTRIAL,,"Frankenstra√üe 70-80, 90461 N√ºrnberg, Germany",Germany,DEU,49.4300639,11.0717279,high
301_SIEMENS-ENERGY-AG,Siemens Energy AG,5299005CHJZ14D4FDJ62,HRB 252581,DE,SIEMENS ENERGY LIMITED,529900Z35GI05WN6W259,659600,IE,Utilities,Siemens Energy Global GmbH & Co. KG Karlsruhe,OFFICE,,"Siemensallee 84, 76187 Karlsruhe, Germany",Germany,DEU,49.0279088,8.3510361,medium
302_SIEMENS-ENERGY-AG,Siemens Energy AG,5299005CHJZ14D4FDJ62,HRB 252581,DE,SIEMENS ENERGY LIMITED,529900Z35GI05WN6W259,659600,IE,Utilities,Siemens Energy,OFFICE,,"Siemenspromenade 9, 91058 Erlangen, Germany",Germany,DEU,49.5768621,11.0050201,high
303_SIEMENS-ENERGY-AG,Siemens Energy AG,5299005CHJZ14D4FDJ62,HRB 252581,DE,SIEMENS ENERGY LIMITED,529900Z35GI05WN6W259,659600,IE,Utilities,Siemens Energy AG,MANUFACTURING,,"Katzwanger Str. 150, 90461 N√ºrnberg, Germany",Germany,DEU,49.4218673,11.0784797,high
304_SIEMENS-ENERGY-AG,Siemens Energy AG,5299005CHJZ14D4FDJ62,HRB 252581,DE,SIEMENS ENERGY LIMITED,529900Z35GI05WN6W259,659600,IE,Utilities,Siemens Energy,MANUFACTURING,,"Hegelstra√üe 20, 73230 Kirchheim unter Teck, Germany",Germany,DEU,48.6508331,9.4291162,high
305_SIEMENS-ENERGY-AG,Siemens Energy AG,5299005CHJZ14D4FDJ62,HRB 252581,DE,SIEMENS ENERGY LIMITED,529900Z35GI05WN6W259,659600,IE,Utilities,Siemens Energy,INDUSTRIAL,,"Am Stahl 2, 91301 Forchheim, Germany",Germany,DEU,49.7137555,11.0723667,high
306_SIEMENS-ENERGY-AG,Siemens Energy AG,5299005CHJZ14D4FDJ62,HRB 252581,DE,SIEMENS ENERGY LIMITED,529900Z35GI05WN6W259,659600,IE,Utilities,Siemens Energy,OFFICE,,"8-10 Av. de l'Arche, 92400 Courbevoie, France",France,FRA,48.8957145,2.2390164,high
307_SIEMENS-ENERGY-AG,Siemens Energy AG,5299005CHJZ14D4FDJ62,HRB 252581,DE,SIEMENS ENERGY LIMITED,529900Z35GI05WN6W259,659600,IE,Utilities,Siemens Energy S.A.,OFFICE,,"Dr. Victor Pinto, Santa Cruz de la Sierra, Bolivia",Bolivia,BOL,-17.7571436,-63.1971731,high
308_SIEMENS-ENERGY-AG,Siemens Energy AG,5299005CHJZ14D4FDJ62,HRB 252581,DE,SIEMENS ENERGY LIMITED,529900Z35GI05WN6W259,659600,IE,Utilities,SIEMENS ENERGY LIMITED,OFFICE,,"Building C, 1 Letterman Dr building d suite d4700, San Francisco, CA 94129, USA",United States,USA,37.7988828,-122.4493335,high
309_SIEMENS-ENERGY-AG,Siemens Energy AG,5299005CHJZ14D4FDJ62,HRB 252581,DE,SIEMENS ENERGY LIMITED,529900Z35GI05WN6W259,659600,IE,Utilities,SIEMENS ENERGY LIMITED,HIGH_ST,,"1 Rockefeller Plaza Fl 10, New York, NY 10020, USA",United States,USA,40.7580629,-73.9788542,high
310_SIEMENS-ENERGY-AG,Siemens Energy AG,5299005CHJZ14D4FDJ62,HRB 252581,DE,SIEMENS ENERGY LIMITED,529900Z35GI05WN6W259,659600,IE,Utilities,SIEMENS ENERGY LIMITED,INDUSTRIAL,,"101 Siemens Avenue, Charlotte, NC 28273, USA",United States,USA,35.1442224,-80.986378,high
311_SIEMENS-ENERGY-AG,Siemens Energy AG,5299005CHJZ14D4FDJ62,HRB 252581,DE,SIEMENS ENERGY LIMITED,529900Z35GI05WN6W259,659600,IE,Utilities,SIEMENS ENERGY LIMITED,HIGH_ST,,"111 W 19th St, New York, NY 10011, USA",United States,USA,40.7408906,-73.9952084,high
312_SIEMENS-ENERGY-AG,Siemens Energy AG,5299005CHJZ14D4FDJ62,HRB 252581,DE,SIEMENS ENERGY LIMITED,529900Z35GI05WN6W259,659600,IE,Utilities,SIEMENS ENERGY LIMITED,OFFICE,,"45 Fremont St 8th Floor, San Francisco, CA 94105, USA",United States,USA,37.7912489,-122.3971488,high
313_SIEMENS-ENERGY-AG,Siemens Energy AG,5299005CHJZ14D4FDJ62,HRB 252581,DE,SIEMENS ENERGY LIMITED,529900Z35GI05WN6W259,659600,IE,Utilities,SIEMENS ENERGY LIMITED,HIGH_ST,,"Oracle Building 500, 500 Oracle Pkwy, Redwood City, CA 94065, USA",United States,USA,37.5306334,-122.2623999,high
314_SIEMENS-ENERGY-AG,Siemens Energy AG,5299005CHJZ14D4FDJ62,HRB 252581,DE,SIEMENS ENERGY LIMITED,529900Z35GI05WN6W259,659600,IE,Utilities,SIEMENS ENERGY LIMITED,HIGH_ST,,"6 Porter Rd #3r, Cambridge, MA 02140, USA",United States,USA,42.3889656,-71.1201858,high
315_SIEMENS-ENERGY-AG,Siemens Energy AG,5299005CHJZ14D4FDJ62,HRB 252581,DE,SIEMENS ENERGY LIMITED,529900Z35GI05WN6W259,659600,IE,Utilities,SIEMENS ENERGY LIMITED,INDUSTRIAL,,"67 E Evelyn Ave, Mountain View, CA 94041, USA",United States,USA,37.3903097,-122.0674143,high
316_SIEMENS-ENERGY-AG,Siemens Energy AG,5299005CHJZ14D4FDJ62,HRB 252581,DE,SIEMENS ENERGY LIMITED,529900Z35GI05WN6W259,659600,IE,Utilities,SIEMENS ENERGY LIMITED,OFFICE,,"101 Townsend St, San Francisco, CA 94107, USA",United States,USA,37.7802849,-122.3904884,high
317_SIEMENS-ENERGY-AG,Siemens Energy AG,5299005CHJZ14D4FDJ62,HRB 252581,DE,SIEMENS ENERGY LIMITED,529900Z35GI05WN6W259,659600,IE,Utilities,Siemens Energy AS,OFFICE,,"√òstre Aker vei 88, 0596 Oslo, Norway",Norway,NOR,59.9394785,10.8405017,high
318_SIEMENS-ENERGY-AG,Siemens Energy AG,5299005CHJZ14D4FDJ62,HRB 252581,DE,SIEMENS ENERGY LIMITED,529900Z35GI05WN6W259,659600,IE,Utilities,SIEMENS ENERGY LIMITED,OFFICE,,"1600 Amphitheatre Pkwy, Mountain View, CA 94043, USA",United States,USA,37.4213908,-122.0841182,high
319_SIEMENS-ENERGY-AG,Siemens Energy AG,5299005CHJZ14D4FDJ62,HRB 252581,DE,SIEMENS ENERGY LIMITED,529900Z35GI05WN6W259,659600,IE,Utilities,SIEMENS ENERGY LIMITED,OFFICE,,"42 N Chestnut St, Ventura, CA 93001, USA",United States,USA,34.2814357,-119.2913059,high
320_SIEMENS-ENERGY-AG,Siemens Energy AG,5299005CHJZ14D4FDJ62,HRB 252581,DE,SIEMENS ENERGY LIMITED,529900Z35GI05WN6W259,659600,IE,Utilities,SIEMENS ENERGY LIMITED,OFFICE,,"795 Folsom St, San Francisco, CA 94107, USA",United States,USA,37.7820516,-122.40049,high
321_SIEMENS-ENERGY-AG,Siemens Energy AG,5299005CHJZ14D4FDJ62,HRB 252581,DE,SIEMENS ENERGY LIMITED,529900Z35GI05WN6W259,659600,IE,Utilities,Siemens Energy Algeria,OFFICE,,"Lotissement El Kadous, lot n¬∞10, Moutchatchou Haut site d'Hydra, Hydra 16035, Algeria",Algeria,DZA,36.7572247,3.0260268,high
322_SIEMENS-ENERGY-AG,Siemens Energy AG,5299005CHJZ14D4FDJ62,HRB 252581,DE,SIEMENS ENERGY LIMITED,529900Z35GI05WN6W259,659600,IE,Utilities,Siemens Energy¬†C√¥te d'Ivoire,OFFICE,,"Tour SAMA - Plateau Croisement Avenue Lamblin & Avenue Delafosse Prolong√©e, 8√®me √©tage, Porte Gauche 01 BP 4497 Abidjan 01",C√¥te d'Ivoire,CIV,5.320743,-4.011833,high
323_SIEMENS-ENERGY-AG,Siemens Energy AG,5299005CHJZ14D4FDJ62,HRB 252581,DE,SIEMENS ENERGY LIMITED,529900Z35GI05WN6W259,659600,IE,Utilities,Siemens Energy S.A.E. - Egypt,OFFICE,,"90th South Road, New Cairo 1, Cairo Governorate 11835, Egypt",Egypt,EGY,30.0122123,31.4430295,high
324_SIEMENS-ENERGY-AG,Siemens Energy AG,5299005CHJZ14D4FDJ62,HRB 252581,DE,SIEMENS ENERGY LIMITED,529900Z35GI05WN6W259,659600,IE,Utilities,Siemens Energy¬†Oil and Gas Equipment Ltd,ENERGY,,"Capital Place, Block C, 2nd Floor 11 Patrice Lumumba Rd, Airport Residential Area Accra",Ghana,GHA,5.6007548,-0.1880566,high
325_SIEMENS-ENERGY-AG,Siemens Energy AG,5299005CHJZ14D4FDJ62,HRB 252581,DE,SIEMENS ENERGY LIMITED,529900Z35GI05WN6W259,659600,IE,Utilities,Siemens Energy¬†Morocco,OFFICE,,"Business Center Est Anfaplace 1er √©tage, Boulevard La Corniche Ain Diab Casablanca",Morocco,MAR,33.598129,-7.6646354,high
326_SIEMENS-ENERGY-AG,Siemens Energy AG,5299005CHJZ14D4FDJ62,HRB 252581,DE,SIEMENS ENERGY LIMITED,529900Z35GI05WN6W259,659600,IE,Utilities,Condom√≠nio Zenith Towers,OFFICE,,"Torre 2 ‚Äì Piso 2 Via AL16 Talatona, Luanda sul",Angola,AGO,-8.9211043,13.2022944,high
327_SIEMENS-ENERGY-AG,Siemens Energy AG,5299005CHJZ14D4FDJ62,HRB 252581,DE,SIEMENS ENERGY LIMITED,529900Z35GI05WN6W259,659600,IE,Utilities,Siemens,INDUSTRIAL,,"C A Parsons Works, Shields Rd, Newcastle upon Tyne NE6 2UT, UK",United Kingdom,GBR,54.9811782,-1.5657995,high
328_SIEMENS-ENERGY-AG,Siemens Energy AG,5299005CHJZ14D4FDJ62,HRB 252581,DE,SIEMENS ENERGY LIMITED,529900Z35GI05WN6W259,659600,IE,Utilities,Siemens Energy South Africa,OFFICE,,"Siemens Park 300 Janadel Avenue, Halfway House Midrand, Johannesburg",South Africa,ZAF,-26.0044463,28.1188297,high
329_SIEMENS-ENERGY-AG,Siemens Energy AG,5299005CHJZ14D4FDJ62,HRB 252581,DE,SIEMENS ENERGY LIMITED,529900Z35GI05WN6W259,659600,IE,Utilities,Siemens Energy Pty. Ltd.,ENERGY,,"885 Mountain Hwy, Bayswater VIC 3153, Australia",Australia,AUS,-37.8358832,145.2804592,high
330_SIEMENS-ENERGY-AG,Siemens Energy AG,5299005CHJZ14D4FDJ62,HRB 252581,DE,SIEMENS ENERGY LIMITED,529900Z35GI05WN6W259,659600,IE,Utilities,Adelaide Service Centre,ENERGY,,"9 MAB Eastern Promenade Tonsley, SA, 5042, Australia",Australia,AUS,-35.0097563,138.5723246,high
331_SIEMENS-ENERGY-AG,Siemens Energy AG,5299005CHJZ14D4FDJ62,HRB 252581,DE,SIEMENS ENERGY LIMITED,529900Z35GI05WN6W259,659600,IE,Utilities,Siemens Energy Bangladesh Limited,ENERGY,,"Laila Tower (7th Floor) 8 Gulshan Avenue, Gulshan-1 Dhaka 1212, Bangladesh",Bangladesh,BGD,23.7809136,90.4168431,high
332_SIEMENS-ENERGY-AG,Siemens Energy AG,5299005CHJZ14D4FDJ62,HRB 252581,DE,SIEMENS ENERGY LIMITED,529900Z35GI05WN6W259,659600,IE,Utilities,Siemens Energy Pte Ltd,ENERGY,,"Brunei Darussalam, No. 7, 2nd Floor Suria Kiulap Complex, Kiulap Bandar Seri Begawan BE1518",Brunei,BRN,4.9047354,114.9207698,high
333_SIEMENS-ENERGY-AG,Siemens Energy AG,5299005CHJZ14D4FDJ62,HRB 252581,DE,SIEMENS ENERGY LIMITED,529900Z35GI05WN6W259,659600,IE,Utilities,Siemens Energy Limited,ENERGY,,"Unit # 1470, 14th F Exchange Square Building No. 19 & 20, Street 106, Phum #2 Sangkat Wat Phnom, Khan Daun Penh Phnom Penh 120211 Kingdom of Cambodia",Cambodia,KHM,11.5740028,104.9214376,high
334_SIEMENS-ENERGY-AG,Siemens Energy AG,5299005CHJZ14D4FDJ62,HRB 252581,DE,SIEMENS ENERGY LIMITED,529900Z35GI05WN6W259,659600,IE,Utilities,"Siemens Energy Co., Ltd.",ENERGY,,"Room 409, 4th floor, No. 38 Yinglun Road, Shanghai, China",China,CHN,31.31179,121.605576,high
335_SIEMENS-ENERGY-AG,Siemens Energy AG,5299005CHJZ14D4FDJ62,HRB 252581,DE,SIEMENS ENERGY LIMITED,529900Z35GI05WN6W259,659600,IE,Utilities,Siemens Limited,ENERGY,,"Birla Aurora, Level 21, Plot No. 1080 Dr. Annie Besant Road, Worli Mumbai ‚Äì 400030, India",India,IND,19.0123915,72.8232957,high
336_SIEMENS-ENERGY-AG,Siemens Energy AG,5299005CHJZ14D4FDJ62,HRB 252581,DE,SIEMENS ENERGY LIMITED,529900Z35GI05WN6W259,659600,IE,Utilities,PT Siemens Energy Indonesia,ENERGY,,"Arkadia Office Park, Tower F, Level 18 Jl. TB Simatupang Kav. 88 Jakarta 12520 Indonesia",Indonesia,IDN,-6.299238,106.8315731,high
337_SIEMENS-ENERGY-AG,Siemens Energy AG,5299005CHJZ14D4FDJ62,HRB 252581,DE,SIEMENS ENERGY LIMITED,529900Z35GI05WN6W259,659600,IE,Utilities,"Power Generation Services, Services Center",ENERGY,,"Krakatau Industrial Estate Cilegon Jalan Eropa II Kav. B1-B3 Cilegon, Banten 42443 Indonesia",Indonesia,IDN,-5.9990356,106.0163633,high
338_SIEMENS-ENERGY-AG,Siemens Energy AG,5299005CHJZ14D4FDJ62,HRB 252581,DE,SIEMENS ENERGY LIMITED,529900Z35GI05WN6W259,659600,IE,Utilities,Siemens Energy Industrial Turbomachinery Le Havre,OFFICE,,"91 Quai Colbert, 76600 Le Havre, France",France,FRA,49.492372,0.129167,medium
339_SIEMENS-ENERGY-AG,Siemens Energy AG,5299005CHJZ14D4FDJ62,HRB 252581,DE,SIEMENS ENERGY LIMITED,529900Z35GI05WN6W259,659600,IE,Utilities,Siemens Energy K.K.,ENERGY,,"4th Floor, JR Tokyu Meguro Building, 3-1-1 Kami Osaki, Shinagawa-ku, Tokyo 141-0021 Japan",Japan,JPN,35.6326864,139.7157508,high
340_SIEMENS-ENERGY-AG,Siemens Energy AG,5299005CHJZ14D4FDJ62,HRB 252581,DE,SIEMENS ENERGY LIMITED,529900Z35GI05WN6W259,659600,IE,Utilities,Siemens Energy Sdn Bhd,ENERGY,,"Level 1, Reception, CP Tower Pusat Perdagangan Seksyen 16 No 11 Jalan 16/11, 46350 Petaling  Jaya, Selangor",Malaysia,MYS,3.1271117,101.644355,high
341_SIEMENS-ENERGY-AG,Siemens Energy AG,5299005CHJZ14D4FDJ62,HRB 252581,DE,SIEMENS ENERGY LIMITED,529900Z35GI05WN6W259,659600,IE,Utilities,Siemens Energy Limited,ENERGY,,"Unit 6, 15th Floor, Myanmar Centre Office Tower 1, 192 Kabar Aye Pagoda Road, 11201 Bahan Township Yangon, Myanmar",Myanmar,MMR,16.8272548,96.1550184,high
342_SIEMENS-ENERGY-AG,Siemens Energy AG,5299005CHJZ14D4FDJ62,HRB 252581,DE,SIEMENS ENERGY LIMITED,529900Z35GI05WN6W259,659600,IE,Utilities,Siemens Energy Philippines,OFFICE,,"15th Floor NEX Tower 6786 Ayala Ave, Legazpi Village, Makati, 1229 Metro Manila, Philippines",Philippines,PHL,14.5586392,121.0178417,high
343_SIEMENS-ENERGY-AG,Siemens Energy AG,5299005CHJZ14D4FDJ62,HRB 252581,DE,SIEMENS ENERGY LIMITED,529900Z35GI05WN6W259,659600,IE,Utilities,Siemens Energy Pte Ltd,OFFICE,,60 MacPherson Road Singapore 348615,Singapore,SGP,1.3274921,103.8707183,high
344_SIEMENS-ENERGY-AG,Siemens Energy AG,5299005CHJZ14D4FDJ62,HRB 252581,DE,SIEMENS ENERGY LIMITED,529900Z35GI05WN6W259,659600,IE,Utilities,Siemens Energy Limited,ENERGY,,"D-Tower D2-8th floor, 17 Jong-ro 3-gil, Jongno-gu Seoul 03155, Korea",South Korea,KOR,37.5710694,126.978929,high
345_SIEMENS-ENERGY-AG,Siemens Energy AG,5299005CHJZ14D4FDJ62,HRB 252581,DE,SIEMENS ENERGY LIMITED,529900Z35GI05WN6W259,659600,IE,Utilities,Siemens Energy Limited,OFFICE,,"2922/333 Charn Issara Tower II, 35F New Petchburi Rd., Bangkok Thailand",Thailand,THA,13.7433499,100.5881535,high
346_SIEMENS-ENERGY-AG,Siemens Energy AG,5299005CHJZ14D4FDJ62,HRB 252581,DE,SIEMENS ENERGY LIMITED,529900Z35GI05WN6W259,659600,IE,Utilities,Siemens Energy Limited Compan,OFFICE,,"Deutches Haus, 3rd Floor Le Duan Street, Ben Nghe Ward  District 1, Ho Chi Minh City Vietnam",Vietnam,VNM,10.7820158,106.7003482,high
347_SIEMENS-ENERGY-AG,Siemens Energy AG,5299005CHJZ14D4FDJ62,HRB 252581,DE,SIEMENS ENERGY LIMITED,529900Z35GI05WN6W259,659600,IE,Utilities,Siemens Energy Austria,ENERGY,,Siemensstrasse 90 1210 Vienna,Austria,AUT,48.2690697,16.4225736,high
348_SIEMENS-ENERGY-AG,Siemens Energy AG,5299005CHJZ14D4FDJ62,HRB 252581,DE,SIEMENS ENERGY LIMITED,529900Z35GI05WN6W259,659600,IE,Utilities,Siemens Energy Belgium-Luxembourg,ENERGY,,Guido Gezellestraat 125 1654 Beersel (Huizingen),Belgium,BEL,50.7569606,4.2708958,high
349_SIEMENS-ENERGY-AG,Siemens Energy AG,5299005CHJZ14D4FDJ62,HRB 252581,DE,SIEMENS ENERGY LIMITED,529900Z35GI05WN6W259,659600,IE,Utilities,Siemens Energy Austria GmbH,OFFICE,,"Siemensstra√üe 90, 1210 Wien, Austria",Austria,AUT,48.2685132,16.4237471,high
350_SIEMENS-ENERGY-AG,Siemens Energy AG,5299005CHJZ14D4FDJ62,HRB 252581,DE,SIEMENS ENERGY LIMITED,529900Z35GI05WN6W259,659600,IE,Utilities,Siemens Energy EOOD,OFFICE,,"NV Tower, 7th¬†floor, 59 G.M.Dimitrov Blvd.",Bulgaria,BGR,42.6612813,23.3537964,high
351_SIEMENS-ENERGY-AG,Siemens Energy AG,5299005CHJZ14D4FDJ62,HRB 252581,DE,SIEMENS ENERGY LIMITED,529900Z35GI05WN6W259,659600,IE,Utilities,"Siemens Energy, s.r.o.",OFFICE,,Olomouck√° 3419/7 618 00 Brno,Czechia,CZE,49.1907186,16.6320374,high
352_SIEMENS-ENERGY-AG,Siemens Energy AG,5299005CHJZ14D4FDJ62,HRB 252581,DE,SIEMENS ENERGY LIMITED,529900Z35GI05WN6W259,659600,IE,Utilities,Siemens Energy Danemark,ENERGY,,Borupvang 9 DK-2750 Ballerup,Denmark,DNK,55.7324638,12.3799167,high
353_SIEMENS-ENERGY-AG,Siemens Energy AG,5299005CHJZ14D4FDJ62,HRB 252581,DE,SIEMENS ENERGY LIMITED,529900Z35GI05WN6W259,659600,IE,Utilities,Siemens Energy Oy Eesti filial,MANUFACTURING,,Siemens Energy Oy Eesti filial,Estonia,EST,58.595272,25.013607,high
354_SIEMENS-ENERGY-AG,Siemens Energy AG,5299005CHJZ14D4FDJ62,HRB 252581,DE,SIEMENS ENERGY LIMITED,529900Z35GI05WN6W259,659600,IE,Utilities,Siemens Energy Oy,OFFICE,,"Tarvonsalmenkatu 19, FI-02600 Espoo",Finland,FIN,60.2087275,24.8345012,high
355_SIEMENS-ENERGY-AG,Siemens Energy AG,5299005CHJZ14D4FDJ62,HRB 252581,DE,SIEMENS ENERGY LIMITED,529900Z35GI05WN6W259,659600,IE,Utilities,Siemens Energy SAS,ENERGY,,40 Avenue des Fruitiers 93527 Saint-Denis Cedex,France,FRA,48.9205525,2.3545614,high
356_SIEMENS-ENERGY-AG,Siemens Energy AG,5299005CHJZ14D4FDJ62,HRB 252581,DE,SIEMENS ENERGY LIMITED,529900Z35GI05WN6W259,659600,IE,Utilities,Siemens Energy Global GmbH & Co. KG,OFFICE,,Otto-Hahn-Ring 6 81739 Munich,Germany,DEU,48.0916242,11.6518142,high
357_SIEMENS-ENERGY-AG,Siemens Energy AG,5299005CHJZ14D4FDJ62,HRB 252581,DE,SIEMENS ENERGY LIMITED,529900Z35GI05WN6W259,659600,IE,Utilities,Siemens Energy Dammam Hub,INDUSTRIAL,,"Street # 152 Building 6685, ÿßŸÑŸÖÿØŸäŸÜÿ© ÿßŸÑÿµŸÜÿßÿπŸäÿ© ÿßŸÑÿ´ÿßŸÜŸäÿ© ÿ®ÿßŸÑÿØŸÖÿßŸÖÿå ÿßŸÑÿØŸÖÿßŸÖ 34331, Saudi Arabia",Saudi Arabia,SAU,26.2635209,49.9463515,high
358_SIEMENS-ENERGY-AG,Siemens Energy AG,5299005CHJZ14D4FDJ62,HRB 252581,DE,Siemens Energy W.L.L,529900J3DYSWD5YITF73,CR No. : 143149 License No. :182011,QA,Utilities,Siemens Energy WLL,OFFICE,,"7GFV+3W8, Airport St, Doha, Qatar",Qatar,QAT,25.2726515,51.5448125,high